; Fitted to 130x70 mm canvas with 5 mm margin
; original bounds X[29.4569, 69.3489] Y[-82.6178, -10.3287]
; scale factor = 0.830001
; center shift = (49.4029, -46.4733)
G21         ; Set units to mm
G90         ; Absolute positioning
G1 Z3.04 F2540      ; Move to clearance level

;
; Operation:    0
; Name:         
; Type:         Pocket
; Paths:        19
; Direction:    Conventional
; Cut Depth:    3.175
; Pass Depth:   3.175
; Plunge rate:  127
; Cut rate:     1016
;

; Path 0
; Rapid to initial position
G1 X4.8001 Y16.2063 F2540
G1 Z0.5000
; plunge
G1 Z-2.6750 F127
; cut
G1 X4.7821 Y16.2041 F1016
G1 X4.7486 Y16.1968
G1 X4.7123 Y16.1856
G1 X4.6820 Y16.1736
G1 X4.6561 Y16.1607
G1 X4.6507 Y16.1578
G1 X4.6474 Y16.1734
G1 X4.6381 Y16.2048
G1 X4.6347 Y16.2145
G1 X4.6206 Y16.2478
G1 X4.6040 Y16.2803
G1 X4.5949 Y16.2954
G1 X4.5850 Y16.3102
G1 X4.7151 Y16.3102
G1 X4.8001 Y16.2063
G1 X4.8028 Y16.1068
G1 X4.7771 Y16.1013
G1 X4.7479 Y16.0927
G1 X4.7254 Y16.0840
G1 X4.7049 Y16.0741
G1 X4.6822 Y16.0612
G1 X4.6457 Y16.0366
G1 X4.6284 Y16.0222
G1 X4.6076 Y16.0030
G1 X4.5833 Y15.9777
G1 X4.5623 Y15.9535
G1 X4.5413 Y15.9278
G1 X4.5190 Y15.8994
G1 X4.5277 Y15.9183
G1 X4.5389 Y15.9466
G1 X4.5460 Y15.9687
G1 X4.5534 Y15.9961
G1 X4.5559 Y16.0079
G1 X4.5584 Y16.0277
G1 X4.5609 Y16.0597
G1 X4.5605 Y16.0891
G1 X4.5570 Y16.1202
G1 X4.5519 Y16.1451
G1 X4.5426 Y16.1766
G1 X4.5319 Y16.2027
G1 X4.5178 Y16.2305
G1 X4.5123 Y16.2400
G1 X4.5011 Y16.2567
G1 X4.4821 Y16.2816
G1 X4.4633 Y16.3020
G1 X4.4395 Y16.3235
G1 X4.4250 Y16.3347
G1 X4.4159 Y16.3408
G1 X4.3820 Y16.3610
G1 X4.3607 Y16.3711
G1 X4.3257 Y16.3847
G1 X4.2886 Y16.3956
G1 X4.2566 Y16.4023
G1 X4.2254 Y16.4078
G1 X4.2117 Y16.4097
G1 X4.7625 Y16.4097
G1 X5.0554 Y16.0513
G1 X5.0391 Y16.0608
G1 X5.0037 Y16.0790
G1 X4.9746 Y16.0908
G1 X4.9531 Y16.0973
G1 X4.9236 Y16.1042
G1 X4.8959 Y16.1083
G1 X4.8639 Y16.1108
G1 X4.8344 Y16.1104
G1 X4.8028 Y16.1068
G1 X4.8217 Y16.0089
G1 X4.8045 Y16.0056
G1 X4.7823 Y15.9992
G1 X4.7680 Y15.9940
G1 X4.7528 Y15.9869
G1 X4.7374 Y15.9784
G1 X4.7083 Y15.9590
G1 X4.6952 Y15.9484
G1 X4.6795 Y15.9341
G1 X4.6584 Y15.9121
G1 X4.6394 Y15.8905
G1 X4.6195 Y15.8663
G1 X4.5970 Y15.8375
G1 X4.5494 Y15.7735
G1 X4.5222 Y15.7351
G1 X4.4629 Y15.6497
G1 X4.3954 Y15.5500
G1 X4.3208 Y15.4372
G1 X4.2380 Y15.3103
G1 X4.1010 Y15.0973
G1 X3.9490 Y14.8576
G1 X3.7824 Y14.5923
G1 X3.4767 Y14.0993
G1 X3.2089 Y13.6640
G1 X2.7754 Y12.9525
G1 X2.3106 Y12.1840
G1 X1.9059 Y11.5105
G1 X1.5747 Y10.9562
G1 X1.2391 Y10.3927
G1 X0.7336 Y9.5399
G1 X0.3991 Y8.9728
G1 X0.0692 Y8.4118
G1 X-0.3320 Y7.7256
G1 X-0.8645 Y6.8092
G1 X-1.2844 Y6.0797
G1 X-1.5412 Y5.6303
G1 X-1.8317 Y5.1169
G1 X-2.0360 Y4.7507
G1 X-2.1718 Y4.5045
G1 X-2.2913 Y4.2842
G1 X-2.3930 Y4.0928
G1 X-2.4507 Y3.9816
G1 X-2.4773 Y3.9296
G1 X-2.5228 Y3.8372
G1 X-2.5593 Y3.7599
G1 X-2.5751 Y3.7245
G1 X-2.5899 Y3.6895
G1 X-2.6011 Y3.6589
G1 X-2.6118 Y3.6260
G1 X-2.6175 Y3.6041
G1 X-2.6219 Y3.5797
G1 X-2.6238 Y3.5600
G1 X-2.6244 Y3.5373
G1 X-2.6240 Y3.5240
G1 X-2.6219 Y3.5069
G1 X-2.6192 Y3.4913
G1 X-2.6134 Y3.4692
G1 X-2.6067 Y3.4510
G1 X-2.5955 Y3.4276
G1 X-2.5905 Y3.4183
G1 X0.1310 Y-0.9910
G1 X3.1253 Y-5.8377
G1 X3.1259 Y-5.8389
G1 X3.5431 Y-6.5165
G1 X4.0845 Y-7.4001
G1 X4.0868 Y-7.4031
G1 X4.4770 Y-8.0439
G1 X4.9813 Y-8.8757
G1 X5.0802 Y-9.0394
G1 X4.9118 Y-8.7644
G1 X4.5732 Y-8.2134
G1 X4.0860 Y-7.4241
G1 X-0.6425 Y0.1890
G1 X-0.6423 Y0.1890
G1 X-2.6426 Y3.4143
G1 X-2.6565 Y3.4327
G1 X-2.6687 Y3.4460
G1 X-2.6856 Y3.4614
G1 X-2.7001 Y3.4725
G1 X-2.7195 Y3.4846
G1 X-2.7354 Y3.4924
G1 X-2.7566 Y3.5008
G1 X-2.7749 Y3.5060
G1 X-2.7975 Y3.5103
G1 X-2.8159 Y3.5119
G1 X-2.8386 Y3.5119
G1 X-2.8561 Y3.5104
G1 X-2.8787 Y3.5065
G1 X-2.8968 Y3.5014
G1 X-2.9183 Y3.4932
G1 X-2.9351 Y3.4850
G1 X-2.9546 Y3.4729
G1 X-2.9682 Y3.4626
G1 X-2.9853 Y3.4474
G1 X-2.9986 Y3.4329
G1 X-3.0176 Y3.4069
G1 X-2.8538 Y3.6754
G1 X-2.8437 Y3.6960
G1 X-2.8371 Y3.7130
G1 X-2.8310 Y3.7350
G1 X-2.8279 Y3.7525
G1 X-2.8257 Y3.7753
G1 X-2.8257 Y3.7945
G1 X-2.8281 Y3.8175
G1 X-2.8315 Y3.8351
G1 X-2.8378 Y3.8571
G1 X-2.8441 Y3.8733
G1 X-2.8578 Y3.9005
G1 X-3.8986 Y5.6134
G1 X-3.7542 Y5.3815
G1 X-3.5507 Y5.0586
G1 X-3.3344 Y4.7206
G1 X-3.2598 Y4.6051
G1 X-3.1331 Y4.4141
G1 X-3.0581 Y4.3044
G1 X-3.0176 Y4.2483
G1 X-2.9990 Y4.2235
G1 X-2.9796 Y4.1993
G1 X-2.9613 Y4.1779
G1 X-2.9491 Y4.1651
G1 X-2.9362 Y4.1526
G1 X-2.9225 Y4.1412
G1 X-2.9039 Y4.1278
G1 X-2.8917 Y4.1202
G1 X-2.8745 Y4.1113
G1 X-2.8609 Y4.1056
G1 X-2.8394 Y4.0983
G1 X-2.8226 Y4.0940
G1 X-2.7998 Y4.0905
G1 X-2.7808 Y4.0894
G1 X-2.7581 Y4.0902
G1 X-2.7397 Y4.0925
G1 X-2.7174 Y4.0976
G1 X-2.7058 Y4.1010
G1 X-2.6890 Y4.1073
G1 X-2.6758 Y4.1134
G1 X-2.6558 Y4.1244
G1 X-2.6441 Y4.1320
G1 X-2.6316 Y4.1412
G1 X-2.6204 Y4.1507
G1 X-2.6012 Y4.1686
G1 X-2.5869 Y4.1847
G1 X-2.5707 Y4.2037
G1 X-2.5532 Y4.2260
G1 X-2.5169 Y4.2749
G1 X-2.4739 Y4.3363
G1 X-2.3967 Y4.4503
G1 X-2.3662 Y4.4961
G1 X-2.2662 Y4.6495
G1 X-2.0651 Y4.9647
G1 X-1.8231 Y5.3507
G1 X-1.6022 Y5.7066
G1 X-1.2950 Y6.2058
G1 X-1.0266 Y6.6452
G1 X-0.6661 Y7.2391
G1 X-0.2807 Y7.8774
G1 X0.2094 Y8.6941
G1 X0.6365 Y9.4103
G1 X1.1647 Y10.2999
G1 X1.7634 Y11.3131
G1 X2.2478 Y12.1364
G1 X2.8408 Y13.1498
G1 X3.3009 Y13.9406
G1 X3.5902 Y14.4409
G1 X3.8886 Y14.9612
G1 X4.0930 Y15.3210
G1 X4.2528 Y15.6078
G1 X4.3267 Y15.7427
G1 X4.3668 Y15.8178
G1 X4.4129 Y15.9073
G1 X4.4351 Y15.9552
G1 X4.4444 Y15.9784
G1 X4.4499 Y15.9947
G1 X4.4573 Y16.0220
G1 X4.4593 Y16.0368
G1 X4.4614 Y16.0597
G1 X4.4614 Y16.0790
G1 X4.4592 Y16.1017
G1 X4.4559 Y16.1184
G1 X4.4499 Y16.1403
G1 X4.4432 Y16.1576
G1 X4.4290 Y16.1854
G1 X4.4214 Y16.1970
G1 X4.4077 Y16.2153
G1 X4.3957 Y16.2289
G1 X4.3788 Y16.2445
G1 X4.3643 Y16.2556
G1 X4.3379 Y16.2716
G1 X4.3238 Y16.2786
G1 X4.2968 Y16.2894
G1 X4.2675 Y16.2982
G1 X4.2392 Y16.3043
G1 X4.2117 Y16.3091
G1 X4.1830 Y16.3132
G1 X4.1484 Y16.3174
G1 X4.0723 Y16.3250
G1 X3.9806 Y16.3321
G1 X3.8734 Y16.3394
G1 X3.6852 Y16.3494
G1 X3.5408 Y16.3560
G1 X3.3814 Y16.3623
G1 X3.1168 Y16.3714
G1 X2.9235 Y16.3773
G1 X2.6088 Y16.3857
G1 X2.0244 Y16.3985
G1 X1.6393 Y16.4055
G1 X1.2302 Y16.4122
G1 X0.6509 Y16.4199
G1 X0.0357 Y16.4264
G1 X-0.6120 Y16.4316
G1 X-1.4609 Y16.4363
G1 X-2.1675 Y16.4386
G1 X-2.8945 Y16.4392
G1 X-10.0360 Y16.4388
G1 X-10.0588 Y16.4367
G1 X-10.0769 Y16.4333
G1 X-10.0990 Y16.4270
G1 X-10.1159 Y16.4204
G1 X-10.1364 Y16.4103
G1 X-10.1517 Y16.4009
G1 X-10.1701 Y16.3872
G1 X-10.1840 Y16.3745
G1 X-10.1994 Y16.3577
G1 X-10.2103 Y16.3433
G1 X-10.2226 Y16.3237
G1 X-10.2310 Y16.3068
G1 X-10.2392 Y16.2856
G1 X-10.2439 Y16.2691
G1 X-10.2483 Y16.2467
G1 X-10.2502 Y16.2274
G1 X-10.2502 Y16.2044
G1 X-10.2488 Y16.1869
G1 X-10.2447 Y16.1643
G1 X-10.2382 Y16.1426
G1 X-10.2251 Y16.1120
G1 X-10.2190 Y16.1001
G1 X-6.8617 Y10.4891
G1 X-7.2089 Y11.0585
G1 X-7.7440 Y11.9313
G1 X-8.0005 Y12.3480
G1 X-8.4089 Y13.0081
G1 X-8.8622 Y13.7366
G1 X-9.2693 Y14.3859
G1 X-9.5687 Y14.8585
G1 X-9.7795 Y15.1882
G1 X-9.9624 Y15.4708
G1 X-10.0807 Y15.6509
G1 X-10.1817 Y15.8013
G1 X-10.2391 Y15.8856
G1 X-10.2892 Y15.9571
G1 X-10.3312 Y16.0147
G1 X-10.3504 Y16.0400
G1 X-10.3689 Y16.0627
G1 X-10.3891 Y16.0861
G1 X-10.4024 Y16.0996
G1 X-10.4153 Y16.1116
G1 X-10.4292 Y16.1230
G1 X-10.4480 Y16.1363
G1 X-10.4614 Y16.1443
G1 X-10.4823 Y16.1542
G1 X-10.4963 Y16.1595
G1 X-10.5182 Y16.1660
G1 X-10.5356 Y16.1696
G1 X-10.5584 Y16.1721
G1 X-10.5760 Y16.1724
G1 X-10.5987 Y16.1709
G1 X-10.6221 Y16.1665
G1 X-10.6548 Y16.1561
G1 X-10.6672 Y16.1513
G1 X-10.6824 Y16.1439
G1 X-10.7022 Y16.1323
G1 X-10.7136 Y16.1243
G1 X-10.7294 Y16.1114
G1 X-10.7534 Y16.0891
G1 X-10.7762 Y16.0646
G1 X-10.7990 Y16.0381
G1 X-10.8264 Y16.0052
G1 X-10.8565 Y15.9670
G1 X-10.8892 Y15.9244
G1 X-10.9265 Y15.8750
G1 X-11.0106 Y15.7617
G1 X-11.1081 Y15.6275
G1 X-11.2187 Y15.4731
G1 X-11.3420 Y15.2994
G1 X-11.6218 Y14.8990
G1 X-11.7776 Y14.6745
G1 X-12.0285 Y14.3104
G1 X-12.3913 Y13.7801
G1 X-12.7811 Y13.2063
G1 X-13.1914 Y12.5985
G1 X-13.6164 Y11.9661
G1 X-13.9410 Y11.4804
G1 X-14.3768 Y10.8255
G1 X-14.8100 Y10.1703
G1 X-15.2347 Y9.5241
G1 X-15.6453 Y8.8961
G1 X-15.8418 Y8.5925
G1 X-15.7267 Y8.7749
G1 X-15.7264 Y8.7746
G1 X-15.5300 Y9.0835
G1 X-15.2025 Y9.5941
G1 X-14.9650 Y9.9620
G1 X-14.5836 Y10.5493
G1 X-14.1761 Y11.1725
G1 X-14.0361 Y11.3863
G1 X-13.6031 Y12.0432
G1 X-10.6466 Y16.5093
G1 X-3.0020 Y16.5097
G1 X-2.9792 Y16.5117
G1 X-2.9611 Y16.5151
G1 X-2.9389 Y16.5215
G1 X-2.9221 Y16.5280
G1 X-2.9017 Y16.5381
G1 X-2.8862 Y16.5476
G1 X-2.8679 Y16.5613
G1 X-2.8540 Y16.5740
G1 X-2.8386 Y16.5908
G1 X-2.8276 Y16.6051
G1 X-2.8154 Y16.6248
G1 X-2.8070 Y16.6416
G1 X-2.7988 Y16.6629
G1 X-2.7941 Y16.6794
G1 X-2.7897 Y16.7017
G1 X-2.7878 Y16.7190
G1 X-2.7874 Y16.7454
G1 X-2.8652 Y18.1956
G1 X-2.8793 Y18.4492
G1 X-2.8936 Y18.6744
G1 X-2.9101 Y18.8748
G1 X-2.9303 Y19.0540
G1 X-2.9567 Y19.2156
G1 X-2.9877 Y19.3460
G1 X-2.9925 Y19.3620
G1 X-3.0322 Y19.4761
G1 X-3.0415 Y19.4974
G1 X-3.0912 Y19.5954
G1 X-3.1057 Y19.6193
G1 X-3.1684 Y19.7057
G1 X-3.1867 Y19.7266
G1 X-3.2611 Y19.8004
G1 X-3.2809 Y19.8170
G1 X-3.3692 Y19.8820
G1 X-3.3866 Y19.8929
G1 X-3.5012 Y19.9574
G1 X-3.6273 Y20.0154
G1 X-3.7509 Y20.0645
G1 X-3.7038 Y20.0514
G1 X-3.5016 Y20.0044
G1 X-3.2958 Y19.9656
G1 X-3.0853 Y19.9352
G1 X-2.8705 Y19.9133
G1 X-2.6442 Y19.9003
G1 X-2.5034 Y19.9024
G1 X-2.3358 Y19.9163
G1 X-2.1446 Y19.9403
G1 X-1.9348 Y19.9730
G1 X-1.7115 Y20.0141
G1 X-1.4822 Y20.0620
G1 X-1.2516 Y20.1158
G1 X-1.0236 Y20.1750
G1 X-0.8796 Y20.2186
G1 X-0.7361 Y20.2690
G1 X-0.5938 Y20.3259
G1 X-0.4524 Y20.3889
G1 X-0.3119 Y20.4583
G1 X-0.1736 Y20.5333
G1 X-0.0368 Y20.6137
G1 X0.0988 Y20.6997
G1 X0.2313 Y20.7906
G1 X0.3627 Y20.8865
G1 X0.4913 Y20.9870
G1 X0.6172 Y21.0916
G1 X0.7411 Y21.2010
G1 X0.8617 Y21.3142
G1 X0.9793 Y21.4311
G1 X1.0939 Y21.5518
G1 X1.2047 Y21.6756
G1 X1.3122 Y21.8029
G1 X1.4156 Y21.9330
G1 X1.5152 Y22.0660
G1 X1.6105 Y22.2014
G1 X1.7018 Y22.3397
G1 X1.7885 Y22.4799
G1 X1.8701 Y22.6220
G1 X1.9468 Y22.7660
G1 X2.0182 Y22.9114
G1 X2.0847 Y23.0588
G1 X2.1032 Y23.1044
G1 X2.0608 Y22.9865
G1 X1.9877 Y22.8058
G1 X1.9059 Y22.6255
G1 X1.8193 Y22.4537
G1 X1.7254 Y22.2859
G1 X1.6204 Y22.1160
G1 X1.5121 Y21.9558
G1 X1.4020 Y21.8074
G1 X1.2794 Y21.6558
G1 X1.1493 Y21.5090
G1 X1.0171 Y21.3718
G1 X0.8735 Y21.2352
G1 X0.7314 Y21.1106
G1 X0.5801 Y20.9889
G1 X0.4177 Y20.8692
G1 X0.2499 Y20.7554
G1 X0.0793 Y20.6493
G1 X-0.0964 Y20.5496
G1 X-0.2868 Y20.4513
G1 X-0.4743 Y20.3630
G1 X-0.6695 Y20.2798
G1 X-0.8737 Y20.2011
G1 X-1.0795 Y20.1303
G1 X-1.3019 Y20.0620
G1 X-1.5181 Y20.0034
G1 X-1.5197 Y20.0031
G1 X-2.5820 Y19.7340
G1 X-2.6035 Y19.7262
G1 X-2.6192 Y19.7189
G1 X-2.6390 Y19.7076
G1 X-2.6542 Y19.6969
G1 X-2.6716 Y19.6818
G1 X-2.6843 Y19.6688
G1 X-2.6987 Y19.6511
G1 X-2.7092 Y19.6353
G1 X-2.7199 Y19.6150
G1 X-2.7266 Y19.5994
G1 X-2.7339 Y19.5777
G1 X-2.7383 Y19.5573
G1 X-2.7412 Y19.5303
G1 X-2.7417 Y19.5195
G1 X-2.7412 Y16.7241
G1 X-2.7391 Y16.7013
G1 X-2.7358 Y16.6831
G1 X-2.7294 Y16.6611
G1 X-2.7229 Y16.6441
G1 X-2.7128 Y16.6237
G1 X-2.7032 Y16.6084
G1 X-2.6895 Y16.5900
G1 X-2.6769 Y16.5761
G1 X-2.6601 Y16.5607
G1 X-2.6457 Y16.5497
G1 X-2.6261 Y16.5375
G1 X-2.6093 Y16.5291
G1 X-2.5879 Y16.5208
G1 X-2.5715 Y16.5162
G1 X-2.5492 Y16.5117
G1 X-2.5348 Y16.5098
G1 X-2.5176 Y16.5093
G1 X4.8099 Y16.5093
G1 X8.0631 Y12.5268
G1 X8.5727 Y11.9011
G1 X8.4017 Y12.1044
G1 X8.1357 Y12.4236
G1 X8.1358 Y12.4236
G1 X8.0007 Y12.5865
G1 X7.7279 Y12.9167
G1 X7.4591 Y13.2405
G1 X7.1964 Y13.5538
G1 X6.9420 Y13.8550
G1 X6.8178 Y14.0007
G1 X6.5774 Y14.2813
G1 X6.3489 Y14.5452
G1 X6.2393 Y14.6709
G1 X6.1330 Y14.7919
G1 X5.9317 Y15.0194
G1 X5.8366 Y15.1254
G1 X5.7458 Y15.2264
G1 X5.6589 Y15.3213
G1 X5.5769 Y15.4104
G1 X5.4993 Y15.4939
G1 X5.4262 Y15.5715
G1 X5.3581 Y15.6426
G1 X5.2947 Y15.7075
G1 X5.2362 Y15.7657
G1 X5.1824 Y15.8178
G1 X5.1336 Y15.8633
G1 X5.0882 Y15.9034
G1 X5.0437 Y15.9390
G1 X5.0113 Y15.9617
G1 X4.9931 Y15.9725
G1 X4.9651 Y15.9870
G1 X4.9441 Y15.9959
G1 X4.9297 Y16.0005
G1 X4.9080 Y16.0058
G1 X4.8867 Y16.0092
G1 X4.8639 Y16.0113
G1 X4.8445 Y16.0113
G1 X4.8217 Y16.0089
G1 X4.8318 Y15.9099
G1 X4.8098 Y15.9035
G1 X4.7983 Y15.8983
G1 X4.7914 Y15.8947
G1 X4.7705 Y15.8812
G1 X4.7610 Y15.8736
G1 X4.7507 Y15.8645
G1 X4.7334 Y15.8468
G1 X4.7163 Y15.8272
G1 X4.6978 Y15.8047
G1 X4.6769 Y15.7781
G1 X4.6306 Y15.7157
G1 X4.6040 Y15.6784
G1 X4.5453 Y15.5938
G1 X4.4785 Y15.4950
G1 X4.4041 Y15.3826
G1 X4.3216 Y15.2565
G1 X4.1851 Y15.0441
G1 X4.0333 Y14.8048
G1 X3.8670 Y14.5397
G1 X3.5614 Y14.0473
G1 X3.2939 Y13.6121
G1 X2.8605 Y12.9011
G1 X2.3960 Y12.1328
G1 X1.9915 Y11.4594
G1 X1.6603 Y10.9052
G1 X1.3247 Y10.3419
G1 X0.8193 Y9.4894
G1 X0.4850 Y8.9225
G1 X0.1552 Y8.3615
G1 X-0.2459 Y7.6756
G1 X-0.7783 Y6.7594
G1 X-1.1980 Y6.0304
G1 X-1.4546 Y5.5811
G1 X-1.7447 Y5.0684
G1 X-1.9488 Y4.7027
G1 X-2.0843 Y4.4569
G1 X-2.2034 Y4.2376
G1 X-2.3046 Y4.0468
G1 X-2.3619 Y3.9363
G1 X-2.3879 Y3.8855
G1 X-2.4328 Y3.7946
G1 X-2.4684 Y3.7192
G1 X-2.4834 Y3.6857
G1 X-2.4965 Y3.6547
G1 X-2.5066 Y3.6275
G1 X-2.5156 Y3.6003
G1 X-2.5196 Y3.5853
G1 X-2.5230 Y3.5678
G1 X-2.5243 Y3.5573
G1 X-2.5249 Y3.5345
G1 X-2.5236 Y3.5227
G1 X-2.5226 Y3.5162
G1 X-2.5169 Y3.4940
G1 X-2.5057 Y3.4706
G1 X0.2157 Y-0.9387
G1 X3.2109 Y-5.7867
G1 X3.2107 Y-5.7867
G1 X3.6281 Y-6.4645
G1 X4.1695 Y-7.3480
G1 X4.1697 Y-7.3478
G1 X4.5623 Y-7.9923
G1 X5.0667 Y-8.8242
G1 X5.5466 Y-9.6204
G1 X5.8887 Y-10.1914
G1 X5.8889 Y-10.1911
G1 X6.1076 Y-10.5580
G1 X6.1073 Y-10.5580
G1 X6.3185 Y-10.9134
G1 X6.3188 Y-10.9132
G1 X6.6198 Y-11.4229
G1 X6.9020 Y-11.9032
G1 X7.1636 Y-12.3524
G1 X7.3258 Y-12.6333
G1 X7.4783 Y-12.8987
G1 X7.6875 Y-13.2668
G1 X7.8135 Y-13.4911
G1 X7.9282 Y-13.6980
G1 X8.0319 Y-13.8873
G1 X8.0321 Y-13.8873
G1 X8.1228 Y-14.0561
G1 X8.1226 Y-14.0561
G1 X8.2022 Y-14.2077
G1 X8.2366 Y-14.2743
G1 X8.2681 Y-14.3367
G1 X8.2963 Y-14.3938
G1 X8.3209 Y-14.4453
G1 X8.3431 Y-14.4931
G1 X8.3599 Y-14.5309
G1 X8.3717 Y-14.5593
G1 X8.3174 Y-14.5749
G1 X8.2208 Y-14.5954
G1 X8.0945 Y-14.6164
G1 X7.9522 Y-14.6359
G1 X7.7840 Y-14.6546
G1 X7.6022 Y-14.6715
G1 X7.3995 Y-14.6873
G1 X7.3995 Y-14.6875
G1 X7.1851 Y-14.7014
G1 X7.1851 Y-14.7012
G1 X6.9536 Y-14.7135
G1 X6.7116 Y-14.7238
G1 X6.4587 Y-14.7320
G1 X6.1970 Y-14.7379
G1 X5.9281 Y-14.7417
G1 X5.9281 Y-14.7415
G1 X5.6509 Y-14.7428
G1 X5.3743 Y-14.7433
G1 X5.1051 Y-14.7453
G1 X4.8450 Y-14.7484
G1 X4.5955 Y-14.7525
G1 X4.3579 Y-14.7575
G1 X4.1332 Y-14.7636
G1 X3.9234 Y-14.7706
G1 X3.7295 Y-14.7784
G1 X3.5528 Y-14.7870
G1 X3.3945 Y-14.7965
G1 X3.2560 Y-14.8068
G1 X3.1381 Y-14.8178
G1 X3.0399 Y-14.8296
G1 X2.9729 Y-14.8412
G1 X2.9594 Y-14.8444
G1 X2.9180 Y-14.8564
G1 X2.8968 Y-14.8648
G1 X2.8712 Y-14.8819
G1 X2.8571 Y-14.8942
G1 X2.8413 Y-14.9106
G1 X2.8289 Y-14.9298
G1 X2.8200 Y-14.9508
G1 X2.8152 Y-14.9732
G1 X2.8145 Y-14.9959
G1 X2.8177 Y-15.0170
G1 X2.8200 Y-15.0267
G1 X2.8253 Y-15.0438
G1 X2.8350 Y-15.0674
G1 X2.8474 Y-15.0938
G1 X2.8634 Y-15.1250
G1 X2.8830 Y-15.1618
G1 X2.9064 Y-15.2044
G1 X2.9336 Y-15.2531
G1 X2.9985 Y-15.3658
G1 X3.0774 Y-15.4994
G1 X3.2191 Y-15.7359
G1 X3.3286 Y-15.9161
G1 X3.4491 Y-16.1124
G1 X3.6479 Y-16.4341
G1 X3.7914 Y-16.6650
G1 X3.9431 Y-16.9070
G1 X4.1016 Y-17.1591
G1 X4.4359 Y-17.6870
G1 X4.6090 Y-17.9584
G1 X4.7786 Y-18.2259
G1 X4.9427 Y-18.4876
G1 X5.1009 Y-18.7410
G1 X5.2520 Y-18.9853
G1 X5.3952 Y-19.2187
G1 X5.5934 Y-19.5459
G1 X5.7131 Y-19.7463
G1 X5.8219 Y-19.9306
G1 X5.9189 Y-20.0978
G1 X5.9625 Y-20.1741
G1 X6.0401 Y-20.3124
G1 X6.0736 Y-20.3733
G1 X6.1031 Y-20.4283
G1 X6.1296 Y-20.4794
G1 X6.1507 Y-20.5211
G1 X6.1697 Y-20.5603
G1 X6.1813 Y-20.5856
G1 X6.1862 Y-20.5974
G1 X6.1760 Y-20.6196
G1 X6.1544 Y-20.6637
G1 X6.1291 Y-20.7125
G1 X6.0962 Y-20.7735
G1 X6.0959 Y-20.7735
G1 X6.0573 Y-20.8433
G1 X6.0135 Y-20.9213
G1 X5.9644 Y-21.0073
G1 X5.8501 Y-21.2040
G1 X5.8503 Y-21.2042
G1 X5.7177 Y-21.4285
G1 X5.7175 Y-21.4285
G1 X5.5666 Y-21.6807
G1 X5.4850 Y-21.8159
G1 X5.3096 Y-22.1048
G1 X5.1196 Y-22.4151
G1 X4.9164 Y-22.7455
G1 X4.7010 Y-23.0931
G1 X4.5890 Y-23.2728
G1 X4.3578 Y-23.6427
G1 X4.1176 Y-24.0247
G1 X3.8695 Y-24.4172
G1 X3.4915 Y-25.0135
G1 X3.0108 Y-25.7750
G1 X2.6748 Y-26.3101
G1 X2.3647 Y-26.8067
G1 X2.1745 Y-27.1130
G1 X1.9986 Y-27.3972
G1 X1.6964 Y-27.8907
G1 X1.5719 Y-28.0961
G1 X1.4674 Y-28.2713
G1 X1.3830 Y-28.4144
G1 X1.3493 Y-28.4735
G1 X1.3211 Y-28.5237
G1 X1.2977 Y-28.5664
G1 X1.2789 Y-28.6031
G1 X1.2694 Y-28.6242
G1 X1.2635 Y-28.6406
G1 X1.2604 Y-28.6516
G1 X1.2560 Y-28.6742
G1 X1.2560 Y-28.6971
G1 X1.2599 Y-28.7195
G1 X1.2682 Y-28.7410
G1 X1.2827 Y-28.7640
G1 X1.3091 Y-28.7968
G1 X1.3251 Y-28.8133
G1 X1.3388 Y-28.8236
G1 X1.4246 Y-28.8784
G1 X1.5499 Y-28.9438
G1 X1.7121 Y-29.0195
G1 X1.9069 Y-29.1036
G1 X2.1296 Y-29.1942
G1 X2.3750 Y-29.2891
G1 X2.6353 Y-29.3848
G1 X2.8930 Y-29.4814
G1 X3.1362 Y-29.5807
G1 X3.3517 Y-29.6768
G1 X3.5370 Y-29.7675
G1 X3.6905 Y-29.8524
G1 X3.8012 Y-29.9246
G1 X3.8518 Y-29.9688
G1 X3.8533 Y-29.9714
G1 X3.8528 Y-29.9829
G1 X3.8515 Y-30.0000
G1 X3.8299 Y-29.9989
G1 X3.8054 Y-29.9960
G1 X3.7687 Y-29.9895
G1 X3.7339 Y-29.9819
G1 X3.6859 Y-29.9700
G1 X3.6859 Y-29.9703
G1 X3.6384 Y-29.9570
G1 X3.5806 Y-29.9399
G1 X3.5157 Y-29.9197
G1 X3.4477 Y-29.8976
G1 X3.4477 Y-29.8973
G1 X3.3701 Y-29.8712
G1 X3.3701 Y-29.8714
G1 X3.2868 Y-29.8425
G1 X3.1963 Y-29.8107
G1 X2.9935 Y-29.7373
G1 X2.8805 Y-29.6960
G1 X2.3423 Y-29.4962
G1 X2.1985 Y-29.4413
G1 X2.0562 Y-29.3846
G1 X2.0562 Y-29.3848
G1 X1.9219 Y-29.3288
G1 X1.7900 Y-29.2714
G1 X1.6660 Y-29.2152
G1 X1.6660 Y-29.2153
G1 X1.5513 Y-29.1607
G1 X1.4431 Y-29.1070
G1 X1.3409 Y-29.0532
G1 X1.2501 Y-29.0028
G1 X1.1733 Y-28.9571
G1 X1.1037 Y-28.9120
G1 X1.0487 Y-28.8728
G1 X1.0099 Y-28.8405
G1 X0.9943 Y-28.8247
G1 X1.0034 Y-28.8034
G1 X1.0221 Y-28.7634
G1 X1.0500 Y-28.7074
G1 X1.0816 Y-28.6459
G1 X1.1204 Y-28.5730
G1 X1.1640 Y-28.4922
G1 X1.1642 Y-28.4922
G1 X1.2135 Y-28.4031
G1 X1.2682 Y-28.3056
G1 X1.3274 Y-28.2009
G1 X1.3917 Y-28.0885
G1 X1.4605 Y-27.9694
G1 X1.4606 Y-27.9694
G1 X1.6118 Y-27.7103
G1 X1.6936 Y-27.5712
G1 X1.8692 Y-27.2754
G1 X1.9624 Y-27.1194
G1 X2.1595 Y-26.7917
G1 X2.2628 Y-26.6208
G1 X2.4787 Y-26.2660
G1 X2.4789 Y-26.2662
G1 X2.7056 Y-25.8962
G1 X2.9419 Y-25.5129
G1 X3.1865 Y-25.1189
G1 X3.5650 Y-24.5124
G1 X3.6901 Y-24.3110
G1 X3.8128 Y-24.1116
G1 X3.9334 Y-23.9145
G1 X4.0512 Y-23.7201
G1 X4.1672 Y-23.5287
G1 X4.2801 Y-23.3400
G1 X4.3902 Y-23.1547
G1 X4.4971 Y-22.9731
G1 X4.6014 Y-22.7954
G1 X4.7022 Y-22.6220
G1 X4.7994 Y-22.4531
G1 X4.8932 Y-22.2886
G1 X4.9835 Y-22.1293
G1 X5.0695 Y-21.9751
G1 X5.1516 Y-21.8265
G1 X5.2297 Y-21.6838
G1 X5.3033 Y-21.5472
G1 X5.3728 Y-21.4167
G1 X5.4373 Y-21.2930
G1 X5.4972 Y-21.1759
G1 X5.5525 Y-21.0657
G1 X5.6024 Y-20.9630
G1 X5.6476 Y-20.8677
G1 X5.6872 Y-20.7800
G1 X5.7218 Y-20.6995
G1 X5.7507 Y-20.6271
G1 X5.7742 Y-20.5618
G1 X5.7924 Y-20.5026
G1 X5.8020 Y-20.4612
G1 X5.8048 Y-20.4452
G1 X5.8079 Y-20.4136
G1 X5.8071 Y-20.3833
G1 X5.8039 Y-20.3615
G1 X5.7956 Y-20.3312
G1 X5.7846 Y-20.3053
G1 X5.7704 Y-20.2764
G1 X5.7531 Y-20.2424
G1 X5.7314 Y-20.2018
G1 X5.6783 Y-20.1060
G1 X5.6113 Y-19.9890
G1 X5.5307 Y-19.8517
G1 X5.3876 Y-19.6112
G1 X5.2195 Y-19.3337
G1 X5.0952 Y-19.1303
G1 X4.9619 Y-18.9140
G1 X4.7474 Y-18.5683
G1 X4.4391 Y-18.0762
G1 X4.1119 Y-17.5593
G1 X2.3941 Y-14.8653
G1 X2.3800 Y-14.8471
G1 X2.3629 Y-14.8319
G1 X2.3433 Y-14.8199
G1 X2.3221 Y-14.8119
G1 X2.2921 Y-14.8077
G1 X-3.0048 Y-14.6828
G1 X-3.9437 Y-14.6627
G1 X-4.8106 Y-14.6457
G1 X-5.7627 Y-14.6297
G1 X-6.3943 Y-14.6217
G1 X-6.6603 Y-14.6192
G1 X-6.8898 Y-14.6179
G1 X-7.0803 Y-14.6178
G1 X-7.2296 Y-14.6190
G1 X-7.2880 Y-14.6201
G1 X-7.3360 Y-14.6213
G1 X-7.3756 Y-14.6232
G1 X-7.3980 Y-14.6252
G1 X-7.4160 Y-14.6279
G1 X-7.4258 Y-14.6301
G1 X-7.4476 Y-14.6374
G1 X-7.4676 Y-14.6485
G1 X-7.4851 Y-14.6631
G1 X-7.4999 Y-14.6806
G1 X-7.5110 Y-14.7006
G1 X-7.5184 Y-14.7221
G1 X-7.5199 Y-14.7282
G1 X-7.5232 Y-14.7510
G1 X-7.5222 Y-14.7737
G1 X-7.5196 Y-14.7877
G1 X-7.5163 Y-14.8011
G1 X-7.5113 Y-14.8170
G1 X-7.5007 Y-14.8431
G1 X-7.4865 Y-14.8741
G1 X-7.4680 Y-14.9118
G1 X-7.4461 Y-14.9540
G1 X-7.4197 Y-15.0029
G1 X-7.3896 Y-15.0575
G1 X-7.3556 Y-15.1183
G1 X-7.3177 Y-15.1851
G1 X-7.2310 Y-15.3347
G1 X-7.0753 Y-15.5977
G1 X-6.9553 Y-15.7973
G1 X-6.8234 Y-16.0142
G1 X-6.6056 Y-16.3690
G1 X-6.4480 Y-16.6229
G1 X-6.2819 Y-16.8893
G1 X-6.0186 Y-17.3086
G1 X-5.8348 Y-17.5990
G1 X-3.9511 Y-20.5578
G1 X-6.8077 Y-24.5181
G1 X-6.9627 Y-24.7333
G1 X-7.1140 Y-24.9452
G1 X-7.2620 Y-25.1539
G1 X-7.4071 Y-25.3592
G1 X-7.5481 Y-25.5607
G1 X-7.6854 Y-25.7581
G1 X-7.8189 Y-25.9514
G1 X-7.9485 Y-26.1401
G1 X-8.0733 Y-26.3243
G1 X-8.1945 Y-26.5038
G1 X-8.3109 Y-26.6781
G1 X-8.4230 Y-26.8470
G1 X-8.5301 Y-27.0103
G1 X-8.6328 Y-27.1683
G1 X-8.7302 Y-27.3203
G1 X-8.8225 Y-27.4659
G1 X-8.9096 Y-27.6055
G1 X-8.9914 Y-27.7386
G1 X-9.0677 Y-27.8647
G1 X-9.1383 Y-27.9839
G1 X-9.2035 Y-28.0963
G1 X-9.2623 Y-28.2011
G1 X-9.3157 Y-28.2987
G1 X-9.3628 Y-28.3891
G1 X-9.4037 Y-28.4716
G1 X-9.4385 Y-28.5470
G1 X-9.4672 Y-28.6153
G1 X-9.4896 Y-28.6776
G1 X-9.5024 Y-28.7225
G1 X-9.5058 Y-28.7378
G1 X-9.5113 Y-28.7734
G1 X-9.5126 Y-28.7994
G1 X-9.5111 Y-28.8255
G1 X-9.5077 Y-28.8483
G1 X-9.4965 Y-28.8770
G1 X-9.4877 Y-28.8936
G1 X-9.4752 Y-28.9128
G1 X-9.4518 Y-28.9354
G1 X-9.3848 Y-28.9849
G1 X-9.3732 Y-28.9925
G1 X-9.2655 Y-29.0547
G1 X-9.1312 Y-29.1222
G1 X-8.9737 Y-29.1937
G1 X-8.7977 Y-29.2670
G1 X-8.6075 Y-29.3408
G1 X-8.4085 Y-29.4127
G1 X-8.2089 Y-29.4793
G1 X-8.0145 Y-29.5459
G1 X-7.8389 Y-29.6155
G1 X-7.6795 Y-29.6876
G1 X-7.5416 Y-29.7591
G1 X-7.4322 Y-29.8265
G1 X-7.3560 Y-29.8851
G1 X-7.3228 Y-29.9220
G1 X-7.3192 Y-29.9319
G1 X-7.3204 Y-29.9539
G1 X-7.3221 Y-29.9699
G1 X-7.3243 Y-29.9800
G1 X-7.3307 Y-29.9808
G1 X-7.3468 Y-29.9812
G1 X-7.3715 Y-29.9802
G1 X-7.3970 Y-29.9770
G1 X-7.4375 Y-29.9703
G1 X-7.4735 Y-29.9625
G1 X-7.5235 Y-29.9503
G1 X-7.5722 Y-29.9368
G1 X-7.6323 Y-29.9188
G1 X-7.6938 Y-29.8995
G1 X-7.7648 Y-29.8757
G1 X-7.7648 Y-29.8758
G1 X-7.8397 Y-29.8499
G1 X-7.9229 Y-29.8202
G1 X-8.0119 Y-29.7877
G1 X-8.1070 Y-29.7525
G1 X-8.1070 Y-29.7523
G1 X-8.2099 Y-29.7135
G1 X-8.4367 Y-29.6264
G1 X-8.5607 Y-29.5784
G1 X-8.5607 Y-29.5782
G1 X-8.9667 Y-29.4186
G1 X-9.0949 Y-29.3671
G1 X-9.3435 Y-29.2659
G1 X-9.5716 Y-29.1708
G1 X-9.6755 Y-29.1268
G1 X-9.6755 Y-29.1266
G1 X-9.7738 Y-29.0840
G1 X-9.8631 Y-29.0448
G1 X-9.9454 Y-29.0079
G1 X-10.0177 Y-28.9748
G1 X-10.0778 Y-28.9461
G1 X-10.1170 Y-28.9270
G1 X-10.0948 Y-28.8877
G1 X-10.0596 Y-28.8283
G1 X-10.0173 Y-28.7591
G1 X-9.9683 Y-28.6809
G1 X-9.9127 Y-28.5936
G1 X-9.8507 Y-28.4979
G1 X-9.7822 Y-28.3934
G1 X-9.7086 Y-28.2821
G1 X-9.7084 Y-28.2821
G1 X-9.5425 Y-28.0343
G1 X-9.4518 Y-27.9004
G1 X-9.2543 Y-27.6112
G1 X-9.0380 Y-27.2975
G1 X-8.8036 Y-26.9604
G1 X-8.5527 Y-26.6025
G1 X-8.2872 Y-26.2262
G1 X-8.1496 Y-26.0318
G1 X-7.8643 Y-25.6314
G1 X-7.8646 Y-25.6314
G1 X-7.7180 Y-25.4263
G1 X-7.7178 Y-25.4264
G1 X-7.4168 Y-25.0074
G1 X-4.2568 Y-20.6318
G1 X-4.2452 Y-20.6119
G1 X-4.2374 Y-20.5904
G1 X-4.2336 Y-20.5680
G1 X-4.2340 Y-20.5451
G1 X-4.2386 Y-20.5226
G1 X-4.2523 Y-20.4927
G1 X-5.9402 Y-17.8017
G1 X-6.5003 Y-16.9034
G1 X-6.6625 Y-16.6450
G1 X-6.8141 Y-16.4063
G1 X-6.8866 Y-16.2935
G1 X-6.9570 Y-16.1854
G1 X-7.0255 Y-16.0816
G1 X-7.0921 Y-15.9820
G1 X-7.1570 Y-15.8868
G1 X-7.2208 Y-15.7954
G1 X-7.2829 Y-15.7083
G1 X-7.3440 Y-15.6244
G1 X-7.4041 Y-15.5450
G1 X-7.4634 Y-15.4688
G1 X-7.5222 Y-15.3959
G1 X-7.5806 Y-15.3269
G1 X-7.6383 Y-15.2612
G1 X-7.6961 Y-15.1988
G1 X-7.7541 Y-15.1391
G1 X-7.8119 Y-15.0832
G1 X-7.8702 Y-15.0297
G1 X-7.9288 Y-14.9797
G1 X-7.9885 Y-14.9321
G1 X-8.0484 Y-14.8880
G1 X-8.1095 Y-14.8460
G1 X-8.1715 Y-14.8071
G1 X-8.2348 Y-14.7706
G1 X-8.2988 Y-14.7370
G1 X-8.3642 Y-14.7061
G1 X-8.4311 Y-14.6772
G1 X-8.4995 Y-14.6508
G1 X-8.5693 Y-14.6268
G1 X-8.6411 Y-14.6046
G1 X-8.7142 Y-14.5848
G1 X-8.7895 Y-14.5667
G1 X-8.8666 Y-14.5505
G1 X-8.9462 Y-14.5359
G1 X-9.0277 Y-14.5231
G1 X-9.1120 Y-14.5113
G1 X-9.1988 Y-14.5011
G1 X-9.2885 Y-14.4923
G1 X-9.3810 Y-14.4843
G1 X-9.4769 Y-14.4773
G1 X-9.5758 Y-14.4712
G1 X-9.6782 Y-14.4660
G1 X-9.7843 Y-14.4613
G1 X-9.8945 Y-14.4573
G1 X-10.1258 Y-14.4508
G1 X-10.3743 Y-14.4450
G1 X-10.9280 Y-14.4341
G1 X-11.2354 Y-14.4271
G1 X-11.2469 Y-14.4269
G1 X-10.1189 Y-14.4411
G1 X-9.5443 Y-14.4468
G1 X-8.5090 Y-14.4552
G1 X-7.1511 Y-14.4634
G1 X-5.4317 Y-14.4702
G1 X-3.8623 Y-14.4733
G1 X-2.5032 Y-14.4739
G1 X-1.1603 Y-14.4723
G1 X-0.1226 Y-14.4693
G1 X1.1195 Y-14.4636
G1 X2.2906 Y-14.4560
G1 X2.9550 Y-14.4505
G1 X3.5874 Y-14.4445
G1 X4.3773 Y-14.4352
G1 X5.1015 Y-14.4250
G1 X5.7544 Y-14.4141
G1 X6.3306 Y-14.4023
G1 X6.8245 Y-14.3896
G1 X7.0392 Y-14.3831
G1 X7.3187 Y-14.3730
G1 X7.4761 Y-14.3660
G1 X7.6092 Y-14.3586
G1 X7.6668 Y-14.3551
G1 X7.7182 Y-14.3515
G1 X7.7646 Y-14.3477
G1 X7.8036 Y-14.3437
G1 X7.8394 Y-14.3392
G1 X7.8708 Y-14.3342
G1 X7.8882 Y-14.3304
G1 X7.9035 Y-14.3259
G1 X7.9141 Y-14.3222
G1 X7.9347 Y-14.3125
G1 X7.9535 Y-14.2990
G1 X7.9649 Y-14.2876
G1 X7.9683 Y-14.2838
G1 X7.9820 Y-14.2654
G1 X7.9918 Y-14.2448
G1 X7.9980 Y-14.2227
G1 X7.9999 Y-14.1999
G1 X7.9959 Y-14.1701
G1 X7.9821 Y-14.1170
G1 X7.9765 Y-14.1002
G1 X7.9345 Y-13.9998
G1 X7.8706 Y-13.8653
G1 X7.7871 Y-13.7013
G1 X7.6866 Y-13.5118
G1 X7.5713 Y-13.3020
G1 X7.4444 Y-13.0769
G1 X7.3084 Y-12.8431
G1 X6.6342 Y-11.6960
G1 X6.6209 Y-11.6774
G1 X6.6042 Y-11.6616
G1 X6.5851 Y-11.6489
G1 X6.5640 Y-11.6401
G1 X6.5417 Y-11.6355
G1 X6.5269 Y-11.6344
G1 X-12.0046 Y-11.6344
G1 X-12.0275 Y-11.6365
G1 X-12.0495 Y-11.6429
G1 X-12.0700 Y-11.6530
G1 X-12.0884 Y-11.6667
G1 X-12.1037 Y-11.6835
G1 X-12.1111 Y-11.6945
G1 X-12.8241 Y-12.8711
G1 X-12.9677 Y-13.1110
G1 X-13.1020 Y-13.3393
G1 X-13.2237 Y-13.5514
G1 X-13.3303 Y-13.7418
G1 X-13.4186 Y-13.9055
G1 X-13.4869 Y-14.0394
G1 X-13.5287 Y-14.1306
G1 X-13.5346 Y-14.1463
G1 X-13.5491 Y-14.1944
G1 X-13.5537 Y-14.2168
G1 X-13.5542 Y-14.2397
G1 X-13.5504 Y-14.2623
G1 X-13.5426 Y-14.2838
G1 X-13.5308 Y-14.3034
G1 X-13.5091 Y-14.3266
G1 X-13.5054 Y-14.3295
G1 X-13.4867 Y-14.3424
G1 X-13.4605 Y-14.3532
G1 X-13.4502 Y-14.3561
G1 X-13.4385 Y-14.3588
G1 X-13.4140 Y-14.3630
G1 X-13.3866 Y-14.3664
G1 X-13.3539 Y-14.3696
G1 X-13.3145 Y-14.3726
G1 X-13.2342 Y-14.3776
G1 X-13.9604 Y-14.3597
G1 X-13.1621 Y-13.0357
G1 X-12.0064 Y-11.1339
G1 X-12.0065 Y-11.1339
G1 X-7.6485 Y-3.9878
G1 X-2.9432 Y3.7192
G1 X-2.9331 Y3.7399
G1 X-2.9269 Y3.7618
G1 X-2.9248 Y3.7845
G1 X-2.9272 Y3.8075
G1 X-2.9335 Y3.8294
G1 X-2.9429 Y3.8488
G1 X-6.7345 Y10.0891
G1 X-7.2939 Y11.0064
G1 X-7.8287 Y11.8790
G1 X-8.0853 Y12.2956
G1 X-8.4935 Y12.9554
G1 X-8.9465 Y13.6836
G1 X-9.3534 Y14.3325
G1 X-9.6525 Y14.8049
G1 X-9.8629 Y15.1340
G1 X-10.0457 Y15.4161
G1 X-10.1634 Y15.5955
G1 X-10.2639 Y15.7452
G1 X-10.3206 Y15.8285
G1 X-10.3698 Y15.8985
G1 X-10.4102 Y15.9541
G1 X-10.4281 Y15.9776
G1 X-10.4444 Y15.9978
G1 X-10.4610 Y16.0171
G1 X-10.4703 Y16.0269
G1 X-10.4798 Y16.0357
G1 X-10.4867 Y16.0416
G1 X-10.5055 Y16.0549
G1 X-10.5201 Y16.0620
G1 X-10.5247 Y16.0640
G1 X-10.5467 Y16.0705
G1 X-10.5694 Y16.0731
G1 X-10.5921 Y16.0716
G1 X-10.6248 Y16.0612
G1 X-10.6320 Y16.0579
G1 X-10.6518 Y16.0463
G1 X-10.6619 Y16.0382
G1 X-10.6809 Y16.0208
G1 X-10.7007 Y15.9997
G1 X-10.7224 Y15.9744
G1 X-10.7483 Y15.9432
G1 X-10.7775 Y15.9065
G1 X-10.8099 Y15.8641
G1 X-10.8466 Y15.8159
G1 X-10.9301 Y15.7032
G1 X-11.0271 Y15.5696
G1 X-11.1375 Y15.4155
G1 X-11.2605 Y15.2422
G1 X-11.5400 Y14.8423
G1 X-11.6956 Y14.6179
G1 X-11.9463 Y14.2541
G1 X-12.3088 Y13.7241
G1 X-12.6984 Y13.1507
G1 X-13.1087 Y12.5431
G1 X-13.5335 Y11.9106
G1 X-13.8582 Y11.4251
G1 X-14.2938 Y10.7705
G1 X-14.7268 Y10.1155
G1 X-15.1513 Y9.4698
G1 X-15.5616 Y8.8420
G1 X-15.8555 Y8.3882
G1 X-16.4177 Y7.5165
G1 X-16.4283 Y7.4963
G1 X-16.4350 Y7.4744
G1 X-16.4376 Y7.4515
G1 X-16.4361 Y7.4288
G1 X-16.4302 Y7.4066
G1 X-16.4205 Y7.3860
G1 X-16.4072 Y7.3672
G1 X-16.3895 Y7.3506
G1 X-11.3694 Y3.4540
G1 X-10.8053 Y3.0142
G1 X-10.0556 Y2.4265
G1 X-9.5547 Y2.0318
G1 X-8.8261 Y1.4544
G1 X-8.4247 Y1.1337
G1 X-7.9407 Y0.7435
G1 X-7.6590 Y0.5135
G1 X-7.4739 Y0.3602
G1 X-7.3626 Y0.2664
G1 X-7.3013 Y0.2137
G1 X-7.2296 Y0.1504
G1 X-7.1939 Y0.1173
G1 X-7.1886 Y0.1123
G1 X-7.1969 Y0.0767
G1 X-7.2153 Y0.0233
G1 X-7.2427 Y-0.0416
G1 X-7.2787 Y-0.1165
G1 X-7.3240 Y-0.2018
G1 X-7.3780 Y-0.2969
G1 X-7.4353 Y-0.3930
G1 X-7.5007 Y-0.4972
G1 X-7.5707 Y-0.6051
G1 X-7.6451 Y-0.7162
G1 X-7.7244 Y-0.8310
G1 X-7.8051 Y-0.9446
G1 X-7.8898 Y-1.0611
G1 X-7.9746 Y-1.1748
G1 X-8.0610 Y-1.2882
G1 X-8.1479 Y-1.3993
G1 X-8.2345 Y-1.5072
G1 X-8.3203 Y-1.6112
G1 X-8.4043 Y-1.7101
G1 X-8.4857 Y-1.8031
G1 X-8.5636 Y-1.8889
G1 X-8.6381 Y-1.9671
G1 X-8.7102 Y-2.0392
G1 X-8.7719 Y-2.0969
G1 X-8.7886 Y-2.1111
G1 X-8.7840 Y-2.0988
G1 X-8.7125 Y-1.9502
G1 X-8.6166 Y-1.7758
G1 X-8.4951 Y-1.5745
G1 X-8.3570 Y-1.3622
G1 X-8.2033 Y-1.1421
G1 X-7.4075 Y-0.0372
G1 X-7.3959 Y-0.0176
G1 X-7.3881 Y0.0039
G1 X-7.3843 Y0.0267
G1 X-7.3848 Y0.0494
G1 X-7.3894 Y0.0718
G1 X-7.3980 Y0.0931
G1 X-7.4105 Y0.1123
G1 X-7.4324 Y0.1340
G1 X-12.4039 Y3.9785
G1 X-12.7035 Y4.2115
G1 X-13.1294 Y4.5441
G1 X-13.3980 Y4.7552
G1 X-13.6541 Y4.9578
G1 X-14.0167 Y5.2464
G1 X-14.3528 Y5.5166
G1 X-14.5619 Y5.6865
G1 X-14.7601 Y5.8489
G1 X-14.9475 Y6.0041
G1 X-15.0371 Y6.0787
G1 X-15.1231 Y6.1510
G1 X-15.2888 Y6.2914
G1 X-15.2890 Y6.2912
G1 X-15.4425 Y6.4236
G1 X-15.5863 Y6.5490
G1 X-15.6546 Y6.6095
G1 X-15.7200 Y6.6679
G1 X-15.7828 Y6.7246
G1 X-15.8422 Y6.7791
G1 X-15.9563 Y6.8849
G1 X-16.0589 Y6.9831
G1 X-16.1053 Y7.0287
G1 X-16.1512 Y7.0744
G1 X-16.2347 Y7.1598
G1 X-16.2717 Y7.1992
G1 X-16.3073 Y7.2380
G1 X-16.3404 Y7.2749
G1 X-16.3709 Y7.3101
G1 X-16.3990 Y7.3436
G1 X-16.4235 Y7.3738
G1 X-16.4232 Y7.3738
G1 X-16.4481 Y7.4061
G1 X-16.4698 Y7.4351
G1 X-16.4861 Y7.4588
G1 X-16.5046 Y7.4870
G1 X-16.5160 Y7.5060
G1 X-16.5301 Y7.5315
G1 X-16.5381 Y7.5477
G1 X-16.5445 Y7.5624
G1 X-16.5505 Y7.5795
G1 X-16.5537 Y7.5911
G1 X-16.5548 Y7.5975
G1 X-16.5552 Y7.6023
G1 X-16.5501 Y7.6139
G1 X-16.5312 Y7.6510
G1 X-16.5076 Y7.6942
G1 X-16.4755 Y7.7509
G1 X-16.4361 Y7.8184
G1 X-16.3905 Y7.8953
G1 X-16.2792 Y8.0788
G1 X-16.1452 Y8.2961
G1 X-16.1449 Y8.2961
G1 X-15.9879 Y8.5474
G1 X-15.9881 Y8.5474
G1 X-15.8106 Y8.8282
G1 X-15.6139 Y9.1373
G1 X-15.2863 Y9.6481
G1 X-15.0485 Y10.0162
G1 X-14.6669 Y10.6040
G1 X-14.2594 Y11.2271
G1 X-14.1191 Y11.4411
G1 X-13.6861 Y12.0982
G1 X-10.7001 Y16.6088
G1 X-3.0112 Y16.6088
G1 X-2.9885 Y16.6108
G1 X-2.9663 Y16.6172
G1 X-2.9459 Y16.6273
G1 X-2.9276 Y16.6410
G1 X-2.9122 Y16.6578
G1 X-2.8999 Y16.6775
G1 X-2.8917 Y16.6987
G1 X-2.8873 Y16.7211
G1 X-2.8869 Y16.7401
G1 X-2.9647 Y18.1901
G1 X-2.9788 Y18.4429
G1 X-2.9929 Y18.6663
G1 X-3.0089 Y18.8636
G1 X-3.0286 Y19.0380
G1 X-3.0537 Y19.1926
G1 X-3.0832 Y19.3176
G1 X-3.0868 Y19.3296
G1 X-3.1239 Y19.4371
G1 X-3.1303 Y19.4525
G1 X-3.1767 Y19.5444
G1 X-3.1867 Y19.5611
G1 X-3.2438 Y19.6405
G1 X-3.2571 Y19.6560
G1 X-3.3262 Y19.7248
G1 X-3.3402 Y19.7369
G1 X-3.4233 Y19.7982
G1 X-3.4356 Y19.8063
G1 X-3.5429 Y19.8669
G1 X-3.6642 Y19.9228
G1 X-3.8012 Y19.9774
G1 X-3.9558 Y20.0333
G1 X-4.1282 Y20.0928
G1 X-4.3607 Y20.1800
G1 X-4.5887 Y20.2810
G1 X-4.8117 Y20.3951
G1 X-5.0324 Y20.5232
G1 X-5.2489 Y20.6645
G1 X-5.4562 Y20.8152
G1 X-5.6629 Y20.9818
G1 X-5.8561 Y21.1534
G1 X-6.0456 Y21.3385
G1 X-6.2297 Y21.5366
G1 X-6.4015 Y21.7399
G1 X-6.5627 Y21.9501
G1 X-6.7158 Y22.1704
G1 X-6.8600 Y22.4010
G1 X-6.9889 Y22.6314
G1 X-7.1080 Y22.8718
G1 X-7.2024 Y23.0873
G1 X-7.2854 Y23.3023
G1 X-7.3575 Y23.5164
G1 X-7.4185 Y23.7290
G1 X-7.4699 Y23.9451
G1 X-7.5103 Y24.1570
G1 X-7.5399 Y24.3619
G1 X-7.5608 Y24.5741
G1 X-7.5713 Y24.7805
G1 X-7.5728 Y24.9908
G1 X-7.5652 Y25.1900
G1 X-7.5481 Y25.3981
G1 X-7.5224 Y25.5983
G1 X-7.4887 Y25.7940
G1 X-7.4454 Y25.9926
G1 X-7.3963 Y26.1810
G1 X-7.3375 Y26.3718
G1 X-7.2694 Y26.5645
G1 X-7.1954 Y26.7492
G1 X-7.1140 Y26.9309
G1 X-7.0255 Y27.1093
G1 X-6.9323 Y27.2794
G1 X-6.8278 Y27.4544
G1 X-6.7217 Y27.6176
G1 X-6.6053 Y27.7824
G1 X-6.4835 Y27.9418
G1 X-6.3591 Y28.0932
G1 X-6.2233 Y28.2460
G1 X-6.0855 Y28.3905
G1 X-5.9421 Y28.5302
G1 X-5.7943 Y28.6640
G1 X-5.6442 Y28.7908
G1 X-5.4867 Y28.9143
G1 X-5.3246 Y29.0321
G1 X-5.1547 Y29.1467
G1 X-4.9886 Y29.2502
G1 X-4.8148 Y29.3499
G1 X-4.6355 Y29.4441
G1 X-4.4530 Y29.5316
G1 X-4.2737 Y29.6098
G1 X-4.0863 Y29.6832
G1 X-3.8967 Y29.7489
G1 X-3.7032 Y29.8084
G1 X-3.5135 Y29.8584
G1 X-3.3129 Y29.9028
G1 X-3.1196 Y29.9381
G1 X-2.9194 Y29.9659
G1 X-2.7202 Y29.9853
G1 X-2.5152 Y29.9968
G1 X-2.3164 Y30.0000
G1 X-2.1138 Y29.9944
G1 X-1.9108 Y29.9796
G1 X-1.7036 Y29.9558
G1 X-1.5006 Y29.9233
G1 X-1.3007 Y29.8822
G1 X-1.0943 Y29.8301
G1 X-0.8889 Y29.7683
G1 X-0.6908 Y29.6990
G1 X-0.4888 Y29.6180
G1 X-0.2849 Y29.5252
G1 X-0.0897 Y29.4256
G1 X0.1101 Y29.3123
G1 X0.3055 Y29.1897
G1 X0.4976 Y29.0573
G1 X0.6369 Y28.9537
G1 X0.7736 Y28.8466
G1 X0.8995 Y28.7421
G1 X1.0257 Y28.6312
G1 X1.1440 Y28.5207
G1 X1.2545 Y28.4110
G1 X1.3626 Y28.2968
G1 X1.4684 Y28.1775
G1 X1.5637 Y28.0624
G1 X1.6569 Y27.9420
G1 X1.7448 Y27.8198
G1 X1.8304 Y27.6911
G1 X1.9065 Y27.5676
G1 X1.9801 Y27.4385
G1 X2.0489 Y27.3064
G1 X2.1148 Y27.1681
G1 X2.1722 Y27.0352
G1 X2.2282 Y26.8917
G1 X2.2765 Y26.7539
G1 X2.3229 Y26.6046
G1 X2.3636 Y26.4566
G1 X2.3984 Y26.3101
G1 X2.4304 Y26.1524
G1 X2.4566 Y25.9997
G1 X2.4793 Y25.8361
G1 X2.4964 Y25.6769
G1 X2.5095 Y25.5109
G1 X2.5181 Y25.3380
G1 X2.5221 Y25.1686
G1 X2.5219 Y25.1686
G1 X2.5213 Y24.9895
G1 X2.5215 Y24.9895
G1 X2.5164 Y24.8130
G1 X2.5069 Y24.6309
G1 X2.4888 Y24.4055
G1 X2.4627 Y24.1814
G1 X2.4292 Y23.9637
G1 X2.3887 Y23.7519
G1 X2.3418 Y23.5492
G1 X2.2868 Y23.3465
G1 X2.2234 Y23.1442
G1 X2.1547 Y22.9527
G1 X2.0798 Y22.7679
G1 X1.9948 Y22.5806
G1 X1.9072 Y22.4069
G1 X1.8101 Y22.2336
G1 X1.7042 Y22.0618
G1 X1.5945 Y21.8999
G1 X1.4794 Y21.7447
G1 X1.3540 Y21.5898
G1 X1.2228 Y21.4418
G1 X1.0871 Y21.3009
G1 X0.9422 Y21.1631
G1 X0.7938 Y21.0330
G1 X0.6393 Y20.9088
G1 X0.4765 Y20.7887
G1 X0.3055 Y20.6727
G1 X0.1285 Y20.5626
G1 X-0.0507 Y20.4611
G1 X-0.2411 Y20.3628
G1 X-0.4353 Y20.2713
G1 X-0.6315 Y20.1876
G1 X-0.8413 Y20.1069
G1 X-1.0502 Y20.0350
G1 X-1.2726 Y19.9667
G1 X-1.4952 Y19.9064
G1 X-1.4952 Y19.9066
G1 X-2.5481 Y19.6403
G1 X-2.5696 Y19.6325
G1 X-2.5894 Y19.6212
G1 X-2.6069 Y19.6062
G1 X-2.6212 Y19.5885
G1 X-2.6320 Y19.5682
G1 X-2.6392 Y19.5466
G1 X-2.6421 Y19.5195
G1 X-2.6421 Y16.7334
G1 X-2.6400 Y16.7105
G1 X-2.6337 Y16.6884
G1 X-2.6235 Y16.6679
G1 X-2.6099 Y16.6496
G1 X-2.5930 Y16.6343
G1 X-2.5734 Y16.6220
G1 X-2.5521 Y16.6138
G1 X-2.5298 Y16.6094
G1 X-2.5176 Y16.6088
G1 X4.8574 Y16.6088
G1 X8.1402 Y12.5899
G1 X9.3153 Y11.1464
G1 X9.8484 Y10.4891
G1 X10.0836 Y10.1968
G1 X10.1580 Y10.1036
G1 X10.1783 Y10.0792
G1 X10.1976 Y10.0571
G1 X10.2186 Y10.0343
G1 X10.2398 Y10.0128
G1 X10.2620 Y9.9926
G1 X10.2856 Y9.9730
G1 X10.3113 Y9.9547
G1 X10.3368 Y9.9392
G1 X10.3545 Y9.9299
G1 X10.3653 Y9.9249
G1 X10.3834 Y9.9176
G1 X10.3978 Y9.9127
G1 X10.4163 Y9.9076
G1 X10.4283 Y9.9051
G1 X10.4471 Y9.9019
G1 X10.4622 Y9.9002
G1 X10.4814 Y9.8994
G1 X10.4974 Y9.8998
G1 X10.5173 Y9.9015
G1 X10.5295 Y9.9029
G1 X10.5500 Y9.9068
G1 X10.5641 Y9.9103
G1 X10.5852 Y9.9169
G1 X10.5963 Y9.9209
G1 X10.6277 Y9.9346
G1 X10.6583 Y9.9508
G1 X10.6889 Y9.9703
G1 X10.7184 Y9.9919
G1 X10.7489 Y10.0168
G1 X10.7787 Y10.0438
G1 X10.8093 Y10.0738
G1 X10.8405 Y10.1066
G1 X10.8723 Y10.1425
G1 X10.9054 Y10.1817
G1 X10.9392 Y10.2238
G1 X10.9744 Y10.2696
G1 X11.0106 Y10.3187
G1 X11.0487 Y10.3721
G1 X11.0877 Y10.4286
G1 X11.1284 Y10.4891
G1 X11.1711 Y10.5536
G1 X11.2151 Y10.6221
G1 X11.2609 Y10.6948
G1 X11.3085 Y10.7718
G1 X11.3582 Y10.8534
G1 X11.4099 Y10.9391
G1 X11.4636 Y11.0298
G1 X11.5193 Y11.1249
G1 X11.5775 Y11.2251
G1 X11.6999 Y11.4394
G1 X11.8323 Y11.6742
G1 X11.9749 Y11.9302
G1 X12.1280 Y12.2079
G1 X12.2921 Y12.5081
G1 X12.4680 Y12.8314
G1 X12.7545 Y13.3621
G1 X12.9617 Y13.7473
G1 X13.5391 Y14.8252
G1 X13.6538 Y15.0398
G1 X14.1927 Y16.0419
G1 X14.4878 Y16.5862
G1 X14.7623 Y17.0892
G1 X14.9342 Y17.4018
G1 X15.0971 Y17.6968
G1 X15.2514 Y17.9740
G1 X15.2517 Y17.9740
G1 X15.4677 Y18.3582
G1 X15.5352 Y18.4773
G1 X15.6651 Y18.7037
G1 X15.7869 Y18.9136
G1 X15.8445 Y19.0121
G1 X15.9544 Y19.1974
G1 X16.0570 Y19.3671
G1 X16.0572 Y19.3671
G1 X16.1059 Y19.4466
G1 X16.1057 Y19.4466
G1 X16.1519 Y19.5208
G1 X16.1965 Y19.5919
G1 X16.2395 Y19.6593
G1 X16.2805 Y19.7225
G1 X16.3199 Y19.7822
G1 X16.3574 Y19.8383
G1 X16.3937 Y19.8914
G1 X16.3934 Y19.8914
G1 X16.4265 Y19.9384
G1 X16.4586 Y19.9829
G1 X16.4887 Y20.0234
G1 X16.5187 Y20.0622
G1 X16.5442 Y20.0942
G1 X16.5552 Y20.1073
G1 X16.5433 Y20.0769
G1 X16.5119 Y19.9998
G1 X16.4734 Y19.9110
G1 X16.4516 Y19.8623
G1 X16.4021 Y19.7551
G1 X16.3148 Y19.5718
G1 X16.2484 Y19.4356
G1 X16.1767 Y19.2908
G1 X16.0572 Y19.0539
G1 X15.9710 Y18.8850
G1 X15.8320 Y18.6155
G1 X15.6297 Y18.2284
G1 X15.5223 Y18.0248
G1 X15.2955 Y17.5987
G1 X15.0547 Y17.1505
G1 X14.7377 Y16.5655
G1 X14.3388 Y15.8365
G1 X13.9958 Y15.2154
G1 X13.7175 Y14.7147
G1 X13.3682 Y14.0905
G1 X13.0899 Y13.5969
G1 X12.8152 Y13.1127
G1 X12.5462 Y12.6413
G1 X12.2850 Y12.1870
G1 X12.0953 Y11.8592
G1 X11.9121 Y11.5449
G1 X11.6793 Y11.1489
G1 X11.4616 Y10.7829
G1 X11.4613 Y10.7829
G1 X11.3093 Y10.5303
G1 X11.1672 Y10.2976
G1 X11.1674 Y10.2976
G1 X11.0798 Y10.1558
G1 X10.9973 Y10.0240
G1 X10.9971 Y10.0242
G1 X10.8836 Y9.8467
G1 X10.8162 Y9.7432
G1 X10.7549 Y9.6519
G1 X10.7000 Y9.5729
G1 X10.6746 Y9.5372
G1 X10.6531 Y9.5079
G1 X10.6324 Y9.4807
G1 X10.6151 Y9.4588
G1 X10.5946 Y9.4769
G1 X10.5540 Y9.5151
G1 X10.5080 Y9.5602
G1 X10.4532 Y9.6150
G1 X10.3939 Y9.6757
G1 X10.3292 Y9.7436
G1 X10.2590 Y9.8182
G1 X10.1838 Y9.8990
G1 X10.1038 Y9.9860
G1 X10.0194 Y10.0790
G1 X9.8369 Y10.2818
G1 X9.8372 Y10.2820
G1 X9.7393 Y10.3919
G1 X9.5336 Y10.6261
G1 X9.3133 Y10.8786
G1 X9.1988 Y11.0112
G1 X8.9608 Y11.2887
G1 X8.8383 Y11.4321
G1 X8.8385 Y11.4322
G1 X8.5857 Y11.7308
G1 X8.3254 Y12.0403
G1 X8.0591 Y12.3598
G1 X7.9239 Y12.5228
G1 X7.6514 Y12.8530
G1 X7.3828 Y13.1764
G1 X7.1203 Y13.4895
G1 X6.8661 Y13.7905
G1 X6.7421 Y13.9360
G1 X6.5022 Y14.2161
G1 X6.2739 Y14.4797
G1 X6.1645 Y14.6051
G1 X6.0584 Y14.7259
G1 X5.8575 Y14.9529
G1 X5.7626 Y15.0588
G1 X5.6722 Y15.1592
G1 X5.5857 Y15.2538
G1 X5.5040 Y15.3425
G1 X5.4268 Y15.4256
G1 X5.3543 Y15.5025
G1 X5.2869 Y15.5730
G1 X5.2244 Y15.6368
G1 X5.1668 Y15.6942
G1 X5.1148 Y15.7448
G1 X5.0676 Y15.7886
G1 X5.0254 Y15.8260
G1 X4.9862 Y15.8578
G1 X4.9601 Y15.8764
G1 X4.9463 Y15.8846
G1 X4.9266 Y15.8951
G1 X4.9055 Y15.9039
G1 X4.8903 Y15.9078
G1 X4.8774 Y15.9101
G1 X4.8547 Y15.9121
G1 X4.8318 Y15.9099
G1 X4.3592 Y16.0401
G1 X4.3602 Y16.0459
G1 X4.3624 Y16.0689
G1 X4.3601 Y16.0916
G1 X4.3539 Y16.1135
G1 X4.3441 Y16.1335
G1 X4.3417 Y16.1373
G1 X4.3280 Y16.1557
G1 X4.3111 Y16.1713
G1 X4.2923 Y16.1831
G1 X4.2855 Y16.1867
G1 X4.2673 Y16.1943
G1 X4.2456 Y16.2010
G1 X4.2222 Y16.2063
G1 X4.1979 Y16.2105
G1 X4.1705 Y16.2143
G1 X4.1385 Y16.2183
G1 X4.0645 Y16.2256
G1 X3.9740 Y16.2329
G1 X3.8682 Y16.2398
G1 X3.6808 Y16.2500
G1 X3.5368 Y16.2564
G1 X3.3780 Y16.2628
G1 X3.1139 Y16.2719
G1 X2.9208 Y16.2778
G1 X2.6067 Y16.2861
G1 X2.0225 Y16.2990
G1 X1.6375 Y16.3060
G1 X1.2290 Y16.3127
G1 X0.6498 Y16.3203
G1 X0.0349 Y16.3269
G1 X-0.6125 Y16.3321
G1 X-1.4613 Y16.3368
G1 X-2.1675 Y16.3391
G1 X-2.8945 Y16.3398
G1 X-10.0267 Y16.3398
G1 X-10.0495 Y16.3376
G1 X-10.0716 Y16.3313
G1 X-10.0921 Y16.3212
G1 X-10.1104 Y16.3075
G1 X-10.1258 Y16.2906
G1 X-10.1380 Y16.2710
G1 X-10.1463 Y16.2497
G1 X-10.1507 Y16.2274
G1 X-10.1507 Y16.2044
G1 X-10.1467 Y16.1818
G1 X-10.1336 Y16.1513
G1 X-6.5737 Y10.2017
G1 X-6.0319 Y9.2985
G1 X-5.3449 Y8.1608
G1 X-4.8644 Y7.3708
G1 X-4.4208 Y6.6460
G1 X-4.0203 Y5.9973
G1 X-3.6698 Y5.4346
G1 X-3.4668 Y5.1123
G1 X-3.2508 Y4.7745
G1 X-3.1767 Y4.6601
G1 X-3.0511 Y4.4703
G1 X-2.9771 Y4.3626
G1 X-2.9379 Y4.3080
G1 X-2.9209 Y4.2853
G1 X-2.9042 Y4.2642
G1 X-2.8886 Y4.2461
G1 X-2.8795 Y4.2364
G1 X-2.8706 Y4.2277
G1 X-2.8639 Y4.2218
G1 X-2.8453 Y4.2083
G1 X-2.8334 Y4.2020
G1 X-2.8287 Y4.1998
G1 X-2.8072 Y4.1925
G1 X-2.7844 Y4.1889
G1 X-2.7617 Y4.1897
G1 X-2.7393 Y4.1948
G1 X-2.7281 Y4.1988
G1 X-2.7237 Y4.2007
G1 X-2.7037 Y4.2116
G1 X-2.6944 Y4.2186
G1 X-2.6876 Y4.2241
G1 X-2.6750 Y4.2357
G1 X-2.6626 Y4.2494
G1 X-2.6489 Y4.2654
G1 X-2.6331 Y4.2854
G1 X-2.5985 Y4.3321
G1 X-2.5563 Y4.3922
G1 X-2.4795 Y4.5055
G1 X-2.4497 Y4.5504
G1 X-2.3501 Y4.7031
G1 X-2.1495 Y5.0176
G1 X-1.9076 Y5.4033
G1 X-1.6869 Y5.7589
G1 X-1.3800 Y6.2577
G1 X-1.1118 Y6.6968
G1 X-0.7513 Y7.2905
G1 X-0.3661 Y7.9286
G1 X0.1238 Y8.7452
G1 X0.5510 Y9.4611
G1 X1.0788 Y10.3506
G1 X1.6776 Y11.3637
G1 X2.1618 Y12.1868
G1 X2.7549 Y13.2000
G1 X3.2147 Y13.9904
G1 X3.5037 Y14.4904
G1 X3.8020 Y15.0103
G1 X4.0059 Y15.3696
G1 X4.1654 Y15.6556
G1 X4.2388 Y15.7897
G1 X4.2782 Y15.8635
G1 X4.3227 Y15.9497
G1 X4.3427 Y15.9923
G1 X4.3505 Y16.0117
G1 X4.3539 Y16.0212
G1 X4.3592 Y16.0401
; Retract
G1 Z3.0400 F2540

; Path 1
; Rapid to initial position
G1 X0.4276 Y21.0635 F2540
G1 Z0.5000
; plunge
G1 Z-2.6750 F127
; cut
G1 X0.5514 Y21.1665 F1016
G1 X0.6730 Y21.2735
G1 X0.7915 Y21.3848
G1 X0.9070 Y21.4995
G1 X1.0196 Y21.6182
G1 X1.1286 Y21.7399
G1 X1.2342 Y21.8649
G1 X1.3358 Y21.9929
G1 X1.4339 Y22.1234
G1 X1.5275 Y22.2564
G1 X1.6171 Y22.3920
G1 X1.7020 Y22.5294
G1 X1.7822 Y22.6688
G1 X1.8574 Y22.8098
G1 X1.9274 Y22.9523
G1 X1.9923 Y23.0963
G1 X2.0512 Y23.2411
G1 X2.1047 Y23.3871
G1 X2.1521 Y23.5338
G1 X2.1933 Y23.6807
G1 X2.2278 Y23.8272
G1 X2.2664 Y24.0216
G1 X2.2991 Y24.2139
G1 X2.3252 Y24.4036
G1 X2.3450 Y24.5906
G1 X2.3585 Y24.7755
G1 X2.3657 Y24.9577
G1 X2.3663 Y25.1377
G1 X2.3604 Y25.3152
G1 X2.3482 Y25.4904
G1 X2.3294 Y25.6637
G1 X2.3039 Y25.8341
G1 X2.2723 Y26.0022
G1 X2.2337 Y26.1686
G1 X2.1888 Y26.3324
G1 X2.1372 Y26.4943
G1 X2.0787 Y26.6534
G1 X2.0141 Y26.8107
G1 X1.9426 Y26.9655
G1 X1.8646 Y27.1183
G1 X1.7799 Y27.2690
G1 X1.6886 Y27.4175
G1 X1.5909 Y27.5638
G1 X1.4866 Y27.7082
G1 X1.3755 Y27.8505
G1 X1.2580 Y27.9907
G1 X1.1339 Y28.1290
G1 X1.0031 Y28.2656
G1 X0.8659 Y28.3999
G1 X0.7222 Y28.5330
G1 X0.5716 Y28.6640
G1 X0.4148 Y28.7931
G1 X0.2512 Y28.9208
G1 X0.1023 Y29.0316
G1 X-0.0400 Y29.1317
G1 X-0.1780 Y29.2221
G1 X-0.3132 Y29.3022
G1 X-0.4481 Y29.3735
G1 X-0.5841 Y29.4357
G1 X-0.7226 Y29.4890
G1 X-0.8655 Y29.5341
G1 X-1.0142 Y29.5719
G1 X-1.1706 Y29.6022
G1 X-1.3370 Y29.6265
G1 X-1.5143 Y29.6450
G1 X-1.7052 Y29.6585
G1 X-1.9118 Y29.6676
G1 X-2.1359 Y29.6728
G1 X-2.3799 Y29.6750
G1 X-2.6196 Y29.6739
G1 X-2.8418 Y29.6695
G1 X-3.0488 Y29.6609
G1 X-3.2423 Y29.6477
G1 X-3.4243 Y29.6292
G1 X-3.5963 Y29.6049
G1 X-3.7601 Y29.5744
G1 X-3.9172 Y29.5369
G1 X-4.0694 Y29.4922
G1 X-4.2184 Y29.4399
G1 X-4.3654 Y29.3796
G1 X-4.5121 Y29.3111
G1 X-4.6605 Y29.2337
G1 X-4.8119 Y29.1473
G1 X-4.9687 Y29.0513
G1 X-5.1342 Y28.9447
G1 X-5.3115 Y28.8224
G1 X-5.4808 Y28.6951
G1 X-5.6421 Y28.5624
G1 X-5.7954 Y28.4252
G1 X-5.9408 Y28.2836
G1 X-6.0785 Y28.1375
G1 X-6.2079 Y27.9873
G1 X-6.3302 Y27.8334
G1 X-6.4445 Y27.6757
G1 X-6.5509 Y27.5151
G1 X-6.6502 Y27.3511
G1 X-6.7418 Y27.1841
G1 X-6.8257 Y27.0144
G1 X-6.9024 Y26.8423
G1 X-6.9715 Y26.6682
G1 X-7.0335 Y26.4920
G1 X-7.0883 Y26.3139
G1 X-7.1358 Y26.1344
G1 X-7.1764 Y25.9536
G1 X-7.2100 Y25.7714
G1 X-7.2361 Y25.5886
G1 X-7.2557 Y25.4052
G1 X-7.2684 Y25.2212
G1 X-7.2745 Y25.0369
G1 X-7.2735 Y24.8528
G1 X-7.2661 Y24.6690
G1 X-7.2519 Y24.4854
G1 X-7.2313 Y24.3028
G1 X-7.2045 Y24.1204
G1 X-7.1710 Y23.9398
G1 X-7.1311 Y23.7602
G1 X-7.0850 Y23.5823
G1 X-7.0327 Y23.4060
G1 X-6.9742 Y23.2314
G1 X-6.9095 Y23.0595
G1 X-6.8391 Y22.8895
G1 X-6.7624 Y22.7223
G1 X-6.6799 Y22.5576
G1 X-6.5915 Y22.3964
G1 X-6.4972 Y22.2381
G1 X-6.3972 Y22.0837
G1 X-6.2917 Y21.9326
G1 X-6.1804 Y21.7854
G1 X-6.0633 Y21.6425
G1 X-5.9408 Y21.5039
G1 X-5.8128 Y21.3702
G1 X-5.6796 Y21.2409
G1 X-5.5409 Y21.1167
G1 X-5.3969 Y20.9978
G1 X-5.2477 Y20.8846
G1 X-5.0933 Y20.7766
G1 X-4.9339 Y20.6749
G1 X-4.7695 Y20.5796
G1 X-4.6000 Y20.4902
G1 X-4.4256 Y20.4077
G1 X-4.2467 Y20.3321
G1 X-4.0626 Y20.2633
G1 X-3.8742 Y20.2022
G1 X-3.6812 Y20.1484
G1 X-3.4833 Y20.1022
G1 X-3.2816 Y20.0643
G1 X-3.0752 Y20.0343
G1 X-2.8646 Y20.0129
G1 X-2.6457 Y19.9998
G1 X-2.5117 Y20.0016
G1 X-2.3482 Y20.0152
G1 X-2.1600 Y20.0387
G1 X-1.9527 Y20.0710
G1 X-1.7320 Y20.1115
G1 X-1.5048 Y20.1589
G1 X-1.2766 Y20.2121
G1 X-1.0525 Y20.2702
G1 X-0.9126 Y20.3126
G1 X-0.7730 Y20.3615
G1 X-0.6343 Y20.4170
G1 X-0.4964 Y20.4783
G1 X-0.3594 Y20.5458
G1 X-0.2240 Y20.6192
G1 X-0.0901 Y20.6978
G1 X0.0425 Y20.7819
G1 X0.1727 Y20.8711
G1 X0.3014 Y20.9649
G1 X0.4276 Y21.0635
; Retract
G1 Z3.0400 F2540

; Path 2
; Rapid to initial position
G1 X-2.6735 Y19.8024 F2540
G1 Z0.5000
; plunge
G1 Z-2.6750 F127
; cut
G1 X-2.6965 Y19.7890 F1016
G1 X-2.7188 Y19.7725
G1 X-2.7431 Y19.7512
G1 X-2.7617 Y19.7314
G1 X-2.7815 Y19.7063
G1 X-2.7971 Y19.6821
G1 X-2.8114 Y19.6547
G1 X-2.8213 Y19.6306
G1 X-2.8285 Y19.6089
G1 X-2.8312 Y19.5988
G1 X-2.8357 Y19.5783
G1 X-2.8374 Y19.5681
G1 X-2.8407 Y19.5343
G1 X-2.8412 Y19.5195
G1 X-2.8409 Y19.1247
G1 X-2.8597 Y19.2385
G1 X-2.8924 Y19.3749
G1 X-2.8984 Y19.3947
G1 X-2.9409 Y19.5159
G1 X-2.9526 Y19.5425
G1 X-3.0062 Y19.6473
G1 X-3.0249 Y19.6776
G1 X-3.0935 Y19.7715
G1 X-3.1165 Y19.7972
G1 X-3.1662 Y19.8463
G1 X-3.0954 Y19.8362
G1 X-2.8761 Y19.8138
G1 X-2.6735 Y19.8024
G1 X-2.8920 Y19.7154
G1 X-2.9035 Y19.6926
G1 X-2.9099 Y19.6770
G1 X-2.9214 Y19.6996
G1 X-2.9339 Y19.7196
G1 X-2.8920 Y19.7154
; Retract
G1 Z3.0400 F2540

; Path 3
; Rapid to initial position
G1 X-6.2684 Y21.7368 F2540
G1 Z0.5000
; plunge
G1 Z-2.6750 F127
; cut
G1 X-6.3233 Y21.8017 F1016
G1 X-6.4837 Y22.0108
G1 X-6.6340 Y22.2273
G1 X-6.7755 Y22.4537
G1 X-6.9009 Y22.6782
G1 X-7.0167 Y22.9119
G1 X-7.1111 Y23.1273
G1 X-7.1914 Y23.3356
G1 X-7.2631 Y23.5483
G1 X-7.3215 Y23.7519
G1 X-7.3729 Y23.9681
G1 X-7.4119 Y24.1719
G1 X-7.4412 Y24.3760
G1 X-7.4613 Y24.5798
G1 X-7.4718 Y24.7856
G1 X-7.4732 Y24.9870
G1 X-7.4659 Y25.1818
G1 X-7.4493 Y25.3854
G1 X-7.4242 Y25.5815
G1 X-7.3904 Y25.7771
G1 X-7.3481 Y25.9715
G1 X-7.3000 Y26.1559
G1 X-7.2437 Y26.3387
G1 X-7.1771 Y26.5274
G1 X-7.1768 Y26.5274
G1 X-7.1029 Y26.7121
G1 X-7.0249 Y26.8867
G1 X-6.9363 Y27.0650
G1 X-6.8468 Y27.2284
G1 X-6.7422 Y27.4033
G1 X-6.6403 Y27.5602
G1 X-6.6384 Y27.5627
G1 X-6.7375 Y27.3989
G1 X-6.8312 Y27.2282
G1 X-6.9165 Y27.0549
G1 X-6.9949 Y26.8790
G1 X-7.0655 Y26.7013
G1 X-7.1288 Y26.5213
G1 X-7.1847 Y26.3394
G1 X-7.2330 Y26.1563
G1 X-7.2745 Y25.9717
G1 X-7.3087 Y25.7855
G1 X-7.3352 Y25.5992
G1 X-7.3551 Y25.4119
G1 X-7.3678 Y25.2245
G1 X-7.3740 Y25.0363
G1 X-7.3729 Y24.8488
G1 X-7.3653 Y24.6614
G1 X-7.3508 Y24.4743
G1 X-7.3297 Y24.2883
G1 X-7.3025 Y24.1023
G1 X-7.2681 Y23.9183
G1 X-7.2275 Y23.7351
G1 X-7.1804 Y23.5540
G1 X-7.1271 Y23.3744
G1 X-7.0675 Y23.1965
G1 X-7.0015 Y23.0213
G1 X-6.9296 Y22.8480
G1 X-6.8513 Y22.6778
G1 X-6.7672 Y22.5098
G1 X-6.6770 Y22.3454
G1 X-6.5809 Y22.1839
G1 X-6.4788 Y22.0266
G1 X-6.3711 Y21.8725
G1 X-6.2684 Y21.7368
; Retract
G1 Z3.0400 F2540

; Path 4
; Rapid to initial position
G1 X-10.2848 Y16.4097 F2540
G1 Z0.5000
; plunge
G1 Z-2.6750 F127
; cut
G1 X-10.2949 Y16.3960 F1016
G1 X-10.3118 Y16.3682
G1 X-10.3240 Y16.3427
G1 X-10.3352 Y16.3125
G1 X-10.3415 Y16.2885
G1 X-10.3474 Y16.2564
G1 X-10.3497 Y16.2274
G1 X-10.3495 Y16.1959
G1 X-10.3484 Y16.1852
G1 X-10.3523 Y16.1888
G1 X-10.3716 Y16.2044
G1 X-10.3972 Y16.2219
G1 X-10.4187 Y16.2344
G1 X-10.4471 Y16.2474
G1 X-10.4678 Y16.2550
G1 X-10.4981 Y16.2637
G1 X-10.5247 Y16.2687
G1 X-10.5572 Y16.2716
G1 X-10.5824 Y16.2716
G1 X-10.6053 Y16.2701
G1 X-10.6172 Y16.2687
G1 X-10.6406 Y16.2642
G1 X-10.6521 Y16.2613
G1 X-10.6910 Y16.2489
G1 X-10.7024 Y16.2442
G1 X-10.5930 Y16.4097
G1 X-10.2848 Y16.4097
; Retract
G1 Z3.0400 F2540

; Path 5
; Rapid to initial position
G1 X-14.3112 Y5.6113 F2540
G1 Z0.5000
; plunge
G1 Z-2.6750 F127
; cut
G1 X-11.4306 Y3.3753 F1016
G1 X-10.8666 Y2.9358
G1 X-10.1172 Y2.3482
G1 X-9.6165 Y1.9538
G1 X-9.3631 Y1.7531
G1 X-12.3430 Y4.0573
G1 X-12.6424 Y4.2901
G1 X-13.0680 Y4.6226
G1 X-13.3362 Y4.8334
G1 X-13.5923 Y5.0360
G1 X-13.9547 Y5.3244
G1 X-14.2900 Y5.5940
G1 X-14.3112 Y5.6113
; Retract
G1 Z3.0400 F2540

; Path 6
; Rapid to initial position
G1 X-7.6453 Y-0.5373 F2540
G1 Z0.5000
; plunge
G1 Z-2.6750 F127
; cut
G1 X-7.6534 Y-0.5497 F1016
G1 X-7.6535 Y-0.5497
G1 X-7.7271 Y-0.6596
G1 X-7.8064 Y-0.7743
G1 X-7.8857 Y-0.8860
G1 X-7.9697 Y-1.0017
G1 X-8.0539 Y-1.1145
G1 X-8.1395 Y-1.2269
G1 X-8.1557 Y-1.2475
G1 X-8.1226 Y-1.2003
G1 X-7.6453 Y-0.5373
; Retract
G1 Z3.0400 F2540

; Path 7
; Rapid to initial position
G1 X-7.4731 Y-4.0714 F2540
G1 Z0.5000
; plunge
G1 Z-2.6750 F127
; cut
G1 X-8.8326 Y-6.3009 F1016
G1 X-9.7025 Y-7.7303
G1 X-10.5194 Y-9.0772
G1 X-10.9779 Y-9.8380
G1 X-11.1203 Y-10.0771
G1 X-11.7679 Y-11.1780
G1 X-11.7776 Y-11.1987
G1 X-11.7835 Y-11.2208
G1 X-11.7850 Y-11.2436
G1 X-11.7824 Y-11.2663
G1 X-11.7757 Y-11.2882
G1 X-11.7652 Y-11.3085
G1 X-11.7511 Y-11.3266
G1 X-11.7340 Y-11.3416
G1 X-11.7144 Y-11.3534
G1 X-11.6929 Y-11.3612
G1 X-11.6606 Y-11.3657
G1 X-2.1229 Y-11.3654
G1 X-1.2387 Y-11.3639
G1 X0.2366 Y-11.3588
G1 X1.7836 Y-11.3494
G1 X2.9885 Y-11.3382
G1 X3.7502 Y-11.3286
G1 X4.4188 Y-11.3180
G1 X4.7722 Y-11.3112
G1 X5.0872 Y-11.3041
G1 X5.3619 Y-11.2967
G1 X5.6623 Y-11.2864
G1 X5.7835 Y-11.2809
G1 X5.8845 Y-11.2752
G1 X5.9650 Y-11.2695
G1 X5.9983 Y-11.2666
G1 X6.0287 Y-11.2632
G1 X6.0540 Y-11.2593
G1 X6.0683 Y-11.2566
G1 X6.0843 Y-11.2524
G1 X6.0932 Y-11.2495
G1 X6.1141 Y-11.2404
G1 X6.1330 Y-11.2273
G1 X6.1451 Y-11.2162
G1 X6.1478 Y-11.2132
G1 X6.1618 Y-11.1951
G1 X6.1721 Y-11.1746
G1 X6.1786 Y-11.1527
G1 X6.1811 Y-11.1299
G1 X6.1792 Y-11.1072
G1 X6.1763 Y-11.0945
G1 X6.1731 Y-11.0834
G1 X6.1663 Y-11.0652
G1 X6.1541 Y-11.0386
G1 X6.1369 Y-11.0051
G1 X6.1132 Y-10.9613
G1 X6.0494 Y-10.8477
G1 X5.9631 Y-10.6988
G1 X5.9115 Y-10.6107
G1 X5.7932 Y-10.4110
G1 X5.5794 Y-10.0541
G1 X5.3258 Y-9.6348
G1 X5.0370 Y-9.1600
G1 X4.8268 Y-8.8164
G1 X4.4885 Y-8.2657
G1 X4.0014 Y-7.4766
G1 X-0.7270 Y0.1365
G1 X-2.7218 Y3.3541
G1 X-2.7358 Y3.3724
G1 X-2.7526 Y3.3878
G1 X-2.7720 Y3.3998
G1 X-2.7933 Y3.4083
G1 X-2.8159 Y3.4124
G1 X-2.8386 Y3.4124
G1 X-2.8612 Y3.4084
G1 X-2.8827 Y3.4002
G1 X-2.9021 Y3.3882
G1 X-2.9191 Y3.3730
G1 X-2.9339 Y3.3534
G1 X-7.4731 Y-4.0714
G1 X-10.6487 Y-9.0984
G1 X-11.0636 Y-9.7870
G1 X-11.2061 Y-10.0265
G1 X-11.8581 Y-11.1356
G1 X-11.8678 Y-11.1562
G1 X-11.8737 Y-11.1729
G1 X-11.8796 Y-11.1951
G1 X-11.8828 Y-11.2143
G1 X-11.8843 Y-11.2370
G1 X-11.8840 Y-11.2545
G1 X-11.8815 Y-11.2773
G1 X-11.8777 Y-11.2956
G1 X-11.8710 Y-11.3175
G1 X-11.8640 Y-11.3342
G1 X-11.8535 Y-11.3545
G1 X-11.8438 Y-11.3696
G1 X-11.8297 Y-11.3877
G1 X-11.8166 Y-11.4014
G1 X-11.7995 Y-11.4165
G1 X-11.7854 Y-11.4270
G1 X-11.7658 Y-11.4388
G1 X-11.7483 Y-11.4470
G1 X-11.7267 Y-11.4548
G1 X-11.7063 Y-11.4599
G1 X-11.6741 Y-11.4643
G1 X-11.6606 Y-11.4651
G1 X-2.1226 Y-11.4649
G1 X-1.2383 Y-11.4634
G1 X0.2372 Y-11.4584
G1 X1.7845 Y-11.4489
G1 X2.9897 Y-11.4377
G1 X3.7516 Y-11.4280
G1 X4.4207 Y-11.4174
G1 X4.7745 Y-11.4107
G1 X5.0899 Y-11.4036
G1 X5.3652 Y-11.3962
G1 X5.6667 Y-11.3858
G1 X5.7892 Y-11.3803
G1 X5.8914 Y-11.3745
G1 X5.9738 Y-11.3688
G1 X6.0093 Y-11.3657
G1 X6.0435 Y-11.3616
G1 X6.0728 Y-11.3572
G1 X6.0936 Y-11.3530
G1 X6.1158 Y-11.3469
G1 X6.1329 Y-11.3408
G1 X6.1537 Y-11.3317
G1 X6.1706 Y-11.3224
G1 X6.1896 Y-11.3093
G1 X6.2009 Y-11.3003
G1 X6.2180 Y-11.2838
G1 X6.2268 Y-11.2739
G1 X6.2408 Y-11.2558
G1 X6.2507 Y-11.2400
G1 X6.2610 Y-11.2195
G1 X6.2676 Y-11.2031
G1 X6.2741 Y-11.1811
G1 X6.2777 Y-11.1636
G1 X6.2802 Y-11.1409
G1 X6.2804 Y-11.1217
G1 X6.2785 Y-11.0989
G1 X6.2762 Y-11.0846
G1 X6.2722 Y-11.0673
G1 X6.2665 Y-11.0485
G1 X6.2568 Y-11.0234
G1 X6.2427 Y-10.9929
G1 X6.2245 Y-10.9579
G1 X6.2001 Y-10.9124
G1 X6.1636 Y-10.8474
G1 X6.2330 Y-10.9642
G1 X6.2342 Y-10.9659
G1 X6.5340 Y-11.4736
G1 X6.5733 Y-11.5402
G1 X6.5618 Y-11.5379
G1 X6.5488 Y-11.5361
G1 X6.5269 Y-11.5349
G1 X-12.0139 Y-11.5353
G1 X-12.0367 Y-11.5375
G1 X-12.0548 Y-11.5408
G1 X-12.0769 Y-11.5472
G1 X-12.0939 Y-11.5537
G1 X-12.1143 Y-11.5638
G1 X-12.1296 Y-11.5732
G1 X-12.1480 Y-11.5870
G1 X-12.1619 Y-11.5996
G1 X-12.1773 Y-11.6165
G1 X-12.1864 Y-11.6279
G1 X-12.1963 Y-11.6429
G1 X-12.9095 Y-12.8198
G1 X-13.0535 Y-13.0604
G1 X-13.1884 Y-13.2898
G1 X-13.3105 Y-13.5027
G1 X-13.4180 Y-13.6946
G1 X-13.5073 Y-13.8602
G1 X-13.5774 Y-13.9979
G1 X-13.6221 Y-14.0958
G1 X-13.6299 Y-14.1174
G1 X-13.6467 Y-14.1741
G1 X-13.6514 Y-14.1965
G1 X-13.6533 Y-14.2149
G1 X-13.6537 Y-14.2379
G1 X-13.6524 Y-14.2562
G1 X-13.6505 Y-14.2678
G1 X-13.7865 Y-14.2644
G1 X-13.0769 Y-13.0874
G1 X-11.9211 Y-11.1855
G1 X-11.9201 Y-11.1835
G1 X-10.6487 Y-9.0984
G1 X-11.9386 Y-11.4057
G1 X-11.9374 Y-11.4080
G1 X-11.9225 Y-11.4307
G1 X-11.9180 Y-11.4362
G1 X-11.9572 Y-11.4362
G1 X-11.9386 Y-11.4057
; Retract
G1 Z3.0400 F2540

; Path 8
; Rapid to initial position
G1 X-8.4719 Y-14.5549 F2540
G1 Z0.5000
; plunge
G1 Z-2.6750 F127
; cut
G1 X-7.5148 Y-14.5608 F1016
G1 X-7.5161 Y-14.5614
G1 X-7.5313 Y-14.5719
G1 X-7.5488 Y-14.5866
G1 X-7.5612 Y-14.5988
G1 X-7.5759 Y-14.6163
G1 X-7.5870 Y-14.6320
G1 X-7.5981 Y-14.6521
G1 X-7.6052 Y-14.6683
G1 X-7.6152 Y-14.6987
G1 X-7.6183 Y-14.7136
G1 X-7.6217 Y-14.7365
G1 X-7.6227 Y-14.7556
G1 X-7.6217 Y-14.7784
G1 X-7.6202 Y-14.7916
G1 X-7.6163 Y-14.8119
G1 X-7.6112 Y-14.8315
G1 X-7.6036 Y-14.8543
G1 X-7.5914 Y-14.8844
G1 X-7.5759 Y-14.9180
G1 X-7.5563 Y-14.9578
G1 X-7.5337 Y-15.0012
G1 X-7.5070 Y-15.0509
G1 X-7.4765 Y-15.1062
G1 X-7.4423 Y-15.1673
G1 X-7.4039 Y-15.2350
G1 X-7.3166 Y-15.3855
G1 X-7.1607 Y-15.6489
G1 X-7.0405 Y-15.8492
G1 X-6.9083 Y-16.0663
G1 X-6.7805 Y-16.2741
G1 X-6.8031 Y-16.2392
G1 X-6.8739 Y-16.1306
G1 X-6.9426 Y-16.0264
G1 X-7.0099 Y-15.9258
G1 X-7.0753 Y-15.8300
G1 X-7.1397 Y-15.7374
G1 X-7.2024 Y-15.6497
G1 X-7.2646 Y-15.5643
G1 X-7.3255 Y-15.4838
G1 X-7.3858 Y-15.4062
G1 X-7.4463 Y-15.3316
G1 X-7.5058 Y-15.2612
G1 X-7.5652 Y-15.1935
G1 X-7.6246 Y-15.1294
G1 X-7.6850 Y-15.0674
G1 X-7.7446 Y-15.0099
G1 X-7.8056 Y-14.9537
G1 X-7.8667 Y-14.9020
G1 X-7.9295 Y-14.8517
G1 X-7.9921 Y-14.8058
G1 X-8.0564 Y-14.7617
G1 X-8.1218 Y-14.7209
G1 X-8.1886 Y-14.6823
G1 X-8.2563 Y-14.6471
G1 X-8.3248 Y-14.6146
G1 X-8.3952 Y-14.5842
G1 X-8.4671 Y-14.5566
G1 X-8.4719 Y-14.5549
G1 X-8.0360 Y-14.6572
G1 X-7.7071 Y-14.6590
G1 X-7.7098 Y-14.6677
G1 X-7.7125 Y-14.6780
G1 X-7.7168 Y-14.6991
G1 X-7.7212 Y-14.7310
G1 X-7.7222 Y-14.7603
G1 X-7.7207 Y-14.7893
G1 X-7.7178 Y-14.8111
G1 X-7.7125 Y-14.8368
G1 X-7.7056 Y-14.8629
G1 X-7.6959 Y-14.8918
G1 X-7.6818 Y-14.9259
G1 X-7.6769 Y-14.9367
G1 X-7.6772 Y-14.9365
G1 X-7.7410 Y-14.8779
G1 X-7.8045 Y-14.8241
G1 X-7.8705 Y-14.7714
G1 X-7.9358 Y-14.7236
G1 X-8.0035 Y-14.6774
G1 X-8.0360 Y-14.6572
; Retract
G1 Z3.0400 F2540

; Path 9
; Rapid to initial position
G1 X-5.7423 Y-17.9300 F2540
G1 Z0.5000
; plunge
G1 Z-2.6750 F127
; cut
G1 X-4.0715 Y-20.5544 F1016
G1 X-6.8885 Y-24.4599
G1 X-7.0436 Y-24.6753
G1 X-7.1952 Y-24.8876
G1 X-7.3434 Y-25.0964
G1 X-7.4887 Y-25.3021
G1 X-7.6299 Y-25.5039
G1 X-7.7674 Y-25.7016
G1 X-7.9009 Y-25.8949
G1 X-8.0309 Y-26.0842
G1 X-8.1557 Y-26.2687
G1 X-8.2773 Y-26.4485
G1 X-8.3940 Y-26.6231
G1 X-8.5063 Y-26.7924
G1 X-8.6136 Y-26.9560
G1 X-8.7167 Y-27.1145
G1 X-8.8143 Y-27.2670
G1 X-8.9071 Y-27.4132
G1 X-8.9944 Y-27.5534
G1 X-9.0766 Y-27.6869
G1 X-9.1535 Y-27.8138
G1 X-9.2245 Y-27.9340
G1 X-9.2904 Y-28.0476
G1 X-9.3498 Y-28.1532
G1 X-9.4040 Y-28.2525
G1 X-9.4520 Y-28.3449
G1 X-9.4942 Y-28.4298
G1 X-9.5305 Y-28.5085
G1 X-9.5610 Y-28.5816
G1 X-9.5853 Y-28.6502
G1 X-9.5996 Y-28.7011
G1 X-9.6043 Y-28.7226
G1 X-9.6097 Y-28.7583
G1 X-9.6108 Y-28.7686
G1 X-9.6121 Y-28.7945
G1 X-9.6121 Y-28.8050
G1 X-9.6095 Y-28.8401
G1 X-9.6062 Y-28.8628
G1 X-9.6005 Y-28.8846
G1 X-9.5892 Y-28.9132
G1 X-9.5844 Y-28.9237
G1 X-9.5712 Y-28.9478
G1 X-9.5587 Y-28.9670
G1 X-9.5443 Y-28.9845
G1 X-9.5209 Y-29.0071
G1 X-9.5111 Y-29.0155
G1 X-9.4394 Y-29.0682
G1 X-9.4229 Y-29.0787
G1 X-9.3101 Y-29.1437
G1 X-9.1723 Y-29.2128
G1 X-9.0121 Y-29.2855
G1 X-8.8337 Y-29.3597
G1 X-8.6415 Y-29.4344
G1 X-8.4401 Y-29.5071
G1 X-8.2411 Y-29.5735
G1 X-8.0479 Y-29.6397
G1 X-7.8775 Y-29.7072
G1 X-7.7218 Y-29.7776
G1 X-7.6818 Y-29.7985
G1 X-7.7332 Y-29.7812
G1 X-7.7354 Y-29.7808
G1 X-7.8062 Y-29.7561
G1 X-7.8894 Y-29.7263
G1 X-7.9778 Y-29.6941
G1 X-8.0697 Y-29.6602
G1 X-8.0718 Y-29.6591
G1 X-8.1747 Y-29.6204
G1 X-8.4011 Y-29.5335
G1 X-8.5206 Y-29.4871
G1 X-8.5242 Y-29.4854
G1 X-8.9302 Y-29.3258
G1 X-8.9302 Y-29.3260
G1 X-9.0574 Y-29.2750
G1 X-9.0574 Y-29.2748
G1 X-9.3060 Y-29.1736
G1 X-9.5332 Y-29.0789
G1 X-9.6340 Y-29.0364
G1 X-9.6359 Y-29.0353
G1 X-9.7337 Y-28.9930
G1 X-9.7337 Y-28.9927
G1 X-9.8231 Y-28.9535
G1 X-9.8231 Y-28.9537
G1 X-9.9038 Y-28.9174
G1 X-9.9038 Y-28.9173
G1 X-9.9761 Y-28.8841
G1 X-9.9761 Y-28.8844
G1 X-9.9768 Y-28.8841
G1 X-9.9747 Y-28.8803
G1 X-9.9327 Y-28.8119
G1 X-9.8844 Y-28.7345
G1 X-9.8292 Y-28.6478
G1 X-9.8290 Y-28.6478
G1 X-9.7670 Y-28.5521
G1 X-9.6991 Y-28.4484
G1 X-9.6273 Y-28.3396
G1 X-9.6255 Y-28.3375
G1 X-9.4596 Y-28.0898
G1 X-9.3696 Y-27.9565
G1 X-9.1723 Y-27.6677
G1 X-8.9562 Y-27.3545
G1 X-8.7220 Y-27.0176
G1 X-8.4713 Y-26.6597
G1 X-8.2059 Y-26.2837
G1 X-8.0684 Y-26.0895
G1 X-7.7832 Y-25.6891
G1 X-7.7822 Y-25.6872
G1 X-7.6387 Y-25.4868
G1 X-7.6368 Y-25.4846
G1 X-7.3360 Y-25.0657
G1 X-4.1708 Y-20.6822
G1 X-4.1592 Y-20.6623
G1 X-4.1516 Y-20.6459
G1 X-4.1438 Y-20.6244
G1 X-4.1391 Y-20.6069
G1 X-4.1354 Y-20.5844
G1 X-4.1341 Y-20.5660
G1 X-4.1345 Y-20.5432
G1 X-4.1364 Y-20.5251
G1 X-4.1410 Y-20.5026
G1 X-4.1480 Y-20.4811
G1 X-4.1617 Y-20.4511
G1 X-4.1680 Y-20.4397
G1 X-5.7423 Y-17.9300
; Retract
G1 Z3.0400 F2540

; Path 10
; Rapid to initial position
G1 X-3.4838 Y-14.5730 F2540
G1 Z0.5000
; plunge
G1 Z-2.6750 F127
; cut
G1 X-2.5029 Y-14.5734 F1016
G1 X-1.1601 Y-14.5718
G1 X-0.1222 Y-14.5688
G1 X1.1202 Y-14.5631
G1 X2.2915 Y-14.5555
G1 X2.9560 Y-14.5500
G1 X3.5887 Y-14.5440
G1 X4.3788 Y-14.5347
G1 X5.1032 Y-14.5246
G1 X5.7566 Y-14.5136
G1 X6.3332 Y-14.5018
G1 X6.8275 Y-14.4891
G1 X7.0427 Y-14.4826
G1 X7.3231 Y-14.4725
G1 X7.4817 Y-14.4655
G1 X7.6153 Y-14.4582
G1 X7.6737 Y-14.4543
G1 X7.7264 Y-14.4508
G1 X7.7747 Y-14.4468
G1 X7.8158 Y-14.4426
G1 X7.8552 Y-14.4375
G1 X7.8921 Y-14.4313
G1 X7.9157 Y-14.4261
G1 X7.9372 Y-14.4198
G1 X7.9565 Y-14.4124
G1 X7.9771 Y-14.4027
G1 X7.9929 Y-14.3934
G1 X8.0117 Y-14.3799
G1 X8.0239 Y-14.3694
G1 X8.0393 Y-14.3538
G1 X8.0479 Y-14.3434
G1 X8.0616 Y-14.3251
G1 X8.0718 Y-14.3084
G1 X8.0816 Y-14.2878
G1 X8.0878 Y-14.2713
G1 X8.0939 Y-14.2492
G1 X8.0972 Y-14.2309
G1 X8.0979 Y-14.2233
G1 X8.1137 Y-14.2534
G1 X8.1480 Y-14.3200
G1 X8.1791 Y-14.3814
G1 X8.2065 Y-14.4368
G1 X8.2305 Y-14.4870
G1 X8.2324 Y-14.4913
G1 X8.2033 Y-14.4973
G1 X8.0787 Y-14.5180
G1 X7.9413 Y-14.5368
G1 X7.7730 Y-14.5555
G1 X7.7730 Y-14.5558
G1 X7.5944 Y-14.5722
G1 X7.3917 Y-14.5880
G1 X7.3891 Y-14.5885
G1 X7.1827 Y-14.6019
G1 X7.1798 Y-14.6017
G1 X6.9483 Y-14.6139
G1 X6.7073 Y-14.6242
G1 X6.4556 Y-14.6325
G1 X6.1946 Y-14.6384
G1 X5.9303 Y-14.6422
G1 X5.9277 Y-14.6420
G1 X5.6505 Y-14.6432
G1 X5.3737 Y-14.6439
G1 X5.1038 Y-14.6457
G1 X4.8432 Y-14.6490
G1 X4.5935 Y-14.6530
G1 X4.3552 Y-14.6580
G1 X4.1298 Y-14.6641
G1 X3.9194 Y-14.6710
G1 X3.7246 Y-14.6789
G1 X3.5469 Y-14.6875
G1 X3.3871 Y-14.6972
G1 X3.2467 Y-14.7077
G1 X3.1264 Y-14.7189
G1 X3.0229 Y-14.7314
G1 X2.9501 Y-14.7443
G1 X2.9316 Y-14.7487
G1 X2.8813 Y-14.7638
G1 X2.8601 Y-14.7722
G1 X2.8413 Y-14.7819
G1 X2.8158 Y-14.7990
G1 X2.8061 Y-14.8066
G1 X2.7852 Y-14.8252
G1 X2.7694 Y-14.8416
G1 X2.7578 Y-14.8564
G1 X2.7454 Y-14.8756
G1 X2.7369 Y-14.8912
G1 X2.7281 Y-14.9122
G1 X2.7227 Y-14.9298
G1 X2.7178 Y-14.9521
G1 X2.7157 Y-14.9704
G1 X2.7150 Y-14.9932
G1 X2.7161 Y-15.0107
G1 X2.7209 Y-15.0402
G1 X2.7249 Y-15.0560
G1 X2.7332 Y-15.0816
G1 X2.7450 Y-15.1100
G1 X2.7588 Y-15.1393
G1 X2.7755 Y-15.1718
G1 X2.7958 Y-15.2099
G1 X2.8196 Y-15.2530
G1 X2.8474 Y-15.3029
G1 X2.9128 Y-15.4163
G1 X2.9921 Y-15.5506
G1 X3.1339 Y-15.7876
G1 X3.2436 Y-15.9683
G1 X3.3643 Y-16.1647
G1 X3.5634 Y-16.4868
G1 X3.7071 Y-16.7179
G1 X3.8588 Y-16.9599
G1 X4.0175 Y-17.2125
G1 X4.3520 Y-17.7406
G1 X4.5249 Y-18.0117
G1 X4.6942 Y-18.2788
G1 X4.8582 Y-18.5403
G1 X5.0161 Y-18.7934
G1 X5.1671 Y-19.0374
G1 X5.3100 Y-19.2703
G1 X5.5078 Y-19.5969
G1 X5.6273 Y-19.7970
G1 X5.7356 Y-19.9806
G1 X5.8324 Y-20.1473
G1 X5.8757 Y-20.2228
G1 X5.9528 Y-20.3605
G1 X5.9863 Y-20.4214
G1 X5.9865 Y-20.4214
G1 X6.0148 Y-20.4743
G1 X6.0407 Y-20.5243
G1 X6.0618 Y-20.5660
G1 X6.0765 Y-20.5962
G1 X6.0658 Y-20.6179
G1 X6.0413 Y-20.6653
G1 X6.0095 Y-20.7243
G1 X6.0089 Y-20.7252
G1 X5.9707 Y-20.7944
G1 X5.9705 Y-20.7944
G1 X5.9266 Y-20.8723
G1 X5.9269 Y-20.8723
G1 X5.8784 Y-20.9573
G1 X5.8781 Y-20.9573
G1 X5.7639 Y-21.1540
G1 X5.7629 Y-21.1565
G1 X5.6330 Y-21.3762
G1 X5.6321 Y-21.3773
G1 X5.4812 Y-21.6292
G1 X5.3998 Y-21.7643
G1 X5.2246 Y-22.0527
G1 X5.0349 Y-22.3628
G1 X4.8317 Y-22.6930
G1 X4.6164 Y-23.0404
G1 X4.5045 Y-23.2201
G1 X4.2734 Y-23.5898
G1 X4.0335 Y-23.9716
G1 X3.7854 Y-24.3640
G1 X3.4072 Y-24.9603
G1 X3.0909 Y-25.4615
G1 X3.2709 Y-25.1716
G1 X3.6496 Y-24.5648
G1 X3.7748 Y-24.3633
G1 X3.8978 Y-24.1637
G1 X4.0185 Y-23.9661
G1 X4.1364 Y-23.7718
G1 X4.2525 Y-23.5799
G1 X4.3657 Y-23.3908
G1 X4.4760 Y-23.2053
G1 X4.5829 Y-23.0236
G1 X4.6877 Y-22.8454
G1 X4.7884 Y-22.6717
G1 X4.8859 Y-22.5024
G1 X4.9798 Y-22.3378
G1 X5.0706 Y-22.1777
G1 X5.1565 Y-22.0234
G1 X5.2392 Y-21.8744
G1 X5.3174 Y-21.7310
G1 X5.3912 Y-21.5940
G1 X5.4612 Y-21.4626
G1 X5.5261 Y-21.3383
G1 X5.5862 Y-21.2206
G1 X5.6420 Y-21.1093
G1 X5.6925 Y-21.0056
G1 X5.7384 Y-20.9088
G1 X5.7786 Y-20.8192
G1 X5.8143 Y-20.7364
G1 X5.8442 Y-20.6611
G1 X5.8695 Y-20.5909
G1 X5.8894 Y-20.5254
G1 X5.9003 Y-20.4781
G1 X5.9039 Y-20.4552
G1 X5.9070 Y-20.4235
G1 X5.9074 Y-20.4108
G1 X5.9066 Y-20.3805
G1 X5.9058 Y-20.3689
G1 X5.9026 Y-20.3472
G1 X5.8999 Y-20.3350
G1 X5.8914 Y-20.3046
G1 X5.8873 Y-20.2924
G1 X5.8739 Y-20.2614
G1 X5.8592 Y-20.2312
G1 X5.8410 Y-20.1956
G1 X5.8185 Y-20.1535
G1 X5.7648 Y-20.0565
G1 X5.6970 Y-19.9386
G1 X5.6164 Y-19.8008
G1 X5.4728 Y-19.5596
G1 X5.3045 Y-19.2820
G1 X5.1800 Y-19.0780
G1 X5.0465 Y-18.8616
G1 X4.8317 Y-18.5154
G1 X4.5233 Y-18.0229
G1 X4.1958 Y-17.5058
G1 X2.4728 Y-14.8041
G1 X2.4586 Y-14.7860
G1 X2.4463 Y-14.7727
G1 X2.4292 Y-14.7575
G1 X2.4151 Y-14.7470
G1 X2.3954 Y-14.7350
G1 X2.3784 Y-14.7267
G1 X2.3570 Y-14.7187
G1 X2.3360 Y-14.7132
G1 X2.3061 Y-14.7090
G1 X2.2945 Y-14.7082
G1 X-3.0026 Y-14.5834
G1 X-3.4838 Y-14.5730
G1 X2.4531 Y-14.6538
G1 X2.9164 Y-14.6500
G1 X2.9027 Y-14.6534
G1 X2.8447 Y-14.6713
G1 X2.8143 Y-14.6837
G1 X2.7955 Y-14.6934
G1 X2.7859 Y-14.6991
G1 X2.7544 Y-14.7206
G1 X2.7399 Y-14.7322
G1 X2.7134 Y-14.7562
G1 X2.6912 Y-14.7800
G1 X2.6743 Y-14.8022
G1 X2.6577 Y-14.8282
G1 X2.6450 Y-14.8526
G1 X2.6360 Y-14.8753
G1 X2.5514 Y-14.7429
G1 X2.5314 Y-14.7179
G1 X2.5124 Y-14.6983
G1 X2.4888 Y-14.6776
G1 X2.4671 Y-14.6620
G1 X2.4531 Y-14.6538
; Retract
G1 Z3.0400 F2540

; Path 11
; Rapid to initial position
G1 X6.1634 Y-11.4354 F2540
G1 Z0.5000
; plunge
G1 Z-2.6750 F127
; cut
G1 X6.1725 Y-11.4321 F1016
G1 X6.2018 Y-11.4189
G1 X6.2271 Y-11.4044
G1 X6.2516 Y-11.3873
G1 X6.2701 Y-11.3720
G1 X6.2922 Y-11.3502
G1 X6.3059 Y-11.3346
G1 X6.3228 Y-11.3119
G1 X6.3957 Y-11.4354
G1 X6.1634 Y-11.4354
; Retract
G1 Z3.0400 F2540

; Path 12
; Rapid to initial position
G1 X-2.7203 Y3.5931 F2540
G1 Z0.5000
; plunge
G1 Z-2.6750 F127
; cut
G1 X-2.7292 Y3.5965 F1016
G1 X-2.7566 Y3.6039
G1 X-2.7789 Y3.6076
G1 X-2.7644 Y3.6315
G1 X-2.7507 Y3.6603
G1 X-2.7412 Y3.6863
G1 X-2.7330 Y3.7173
G1 X-2.7288 Y3.7433
G1 X-2.7262 Y3.7753
G1 X-2.7266 Y3.8043
G1 X-2.7303 Y3.8360
G1 X-2.7358 Y3.8628
G1 X-2.7450 Y3.8933
G1 X-2.7551 Y3.9182
G1 X-2.7726 Y3.9522
G1
